{
"type": "FeatureCollection",
"name": "observed_buildings_tile4",
"crs": { "type": "name", "properties": { "name": "urn:ogc:def:crs:EPSG::25832" } },
"features": [
{ "type": "Feature", "properties": { "fid": 206, "gml_id": "DEBW_5221000QW6K", "creationDate": "2024-11-25", "informationSystem": "http://repository.gdi-de.org/schemas/adv/citygml/fdv/art.htm#_9100", "name": "DEBWL5221000QW6K", "Gemeindeschluessel": "08111000", "Geometrietyp2DReferenz": 3000, "DatenquelleDachhoehe": [ 1000 ], "Grundrissaktualitaet": "2024-04-01", "DatenquelleBodenhoehe": [ 1100 ], "DatenquelleLage": [ 1000 ], "function": "31001_3024", "roofType": 5000, "measuredHeight": 13.759, "measuredHeight_uom": "urn:adv:uom:m", "CountryName": "Germany", "LocalityName": "Stuttgart", "ThoroughfareName": "Allmandring", "ThoroughfareNumber": "30C, null", "consistsOfBuildingPart|BuildingPart|creationDate": null, "consistsOfBuildingPart|BuildingPart|roofType": null, "consistsOfBuildingPart|BuildingPart|measuredHeight": null, "consistsOfBuildingPart|BuildingPart|measuredHeight_uom": null }, "geometry": { "type": "MultiLineString", "coordinates": [ [ [ 506961.200000000011642, 5398669.910000000149012, 454.237 ], [ 506960.5, 5398669.957999999634922, 454.239 ], [ 506959.5, 5398670.026999999769032, 454.249 ], [ 506958.5, 5398670.096, 454.255 ], [ 506957.5, 5398670.165, 454.245 ], [ 506956.5, 5398670.234000000171363, 454.23 ], [ 506955.5, 5398670.302000000141561, 454.233 ], [ 506954.5, 5398670.371000000275671, 454.24 ], [ 506953.5, 5398670.440000000409782, 454.235 ], [ 506952.631, 5398670.5, 454.241 ], [ 506952.5, 5398670.50899999961257, 454.241 ], [ 506951.5, 5398670.57799999974668, 454.248 ], [ 506950.5, 5398670.646999999880791, 454.246 ], [ 506949.5, 5398670.716, 454.246 ], [ 506948.5, 5398670.784, 454.247 ], [ 506947.5, 5398670.853000000119209, 454.246 ], [ 506946.5, 5398670.92200000025332, 454.247 ], [ 506945.5, 5398670.99100000038743, 454.239 ], [ 506944.5, 5398671.059999999590218, 454.23 ], [ 506943.5, 5398671.128999999724329, 454.227 ], [ 506942.5, 5398671.197999999858439, 454.229 ], [ 506941.5, 5398671.265999999828637, 454.237 ], [ 506940.5, 5398671.335, 454.242 ], [ 506939.5, 5398671.404, 454.234 ], [ 506938.5, 5398671.473000000230968, 454.226 ], [ 506938.107000000018161, 5398671.5, 454.234 ], [ 506937.5, 5398671.542000000365078, 454.233 ], [ 506936.5, 5398671.610999999567866, 454.229 ], [ 506935.5, 5398671.679999999701977, 454.225 ], [ 506934.5, 5398671.747999999672174, 454.222 ], [ 506933.5, 5398671.816999999806285, 454.221 ], [ 506932.5, 5398671.886, 454.216 ], [ 506931.5, 5398671.955, 454.211 ], [ 506930.5, 5398672.024000000208616, 454.212 ], [ 506929.5, 5398672.093000000342727, 454.208 ], [ 506928.5, 5398672.161000000312924, 454.207 ], [ 506927.5, 5398672.230000000447035, 454.212 ], [ 506926.5, 5398672.298999999649823, 454.214 ], [ 506925.5, 5398672.367999999783933, 454.215 ], [ 506924.5, 5398672.437, 454.217 ], [ 506923.583999999973457, 5398672.5, 454.224 ], [ 506923.5, 5398672.506, 454.224 ], [ 506922.5, 5398672.575000000186265, 454.215 ], [ 506921.5, 5398672.643000000156462, 454.213 ], [ 506920.5, 5398672.712000000290573, 454.222 ], [ 506919.5, 5398672.781000000424683, 454.237 ], [ 506918.5, 5398672.849999999627471, 454.244 ], [ 506917.5, 5398672.918999999761581, 454.229 ], [ 506916.5, 5398672.987999999895692, 454.201 ], [ 506915.5, 5398673.057, 454.21 ], [ 506914.5, 5398673.125, 454.219 ], [ 506913.5, 5398673.19400000013411, 454.221 ], [ 506912.5, 5398673.263000000268221, 454.21 ], [ 506911.5, 5398673.332000000402331, 454.207 ], [ 506910.5, 5398673.400999999605119, 454.216 ], [ 506909.5, 5398673.46999999973923, 454.234 ], [ 506909.06, 5398673.5, 454.247 ], [ 506908.5, 5398673.53899999987334, 454.256 ], [ 506907.5, 5398673.606999999843538, 454.261 ], [ 506906.5, 5398673.676, 454.242 ], [ 506905.5, 5398673.745000000111759, 454.235 ], [ 506904.5, 5398673.814000000245869, 454.259 ], [ 506903.5, 5398673.88300000037998, 454.269 ], [ 506902.960000000020955, 5398673.92, 454.257 ], [ 506902.93, 5398673.5, 454.252 ], [ 506902.859, 5398672.5, 454.245 ], [ 506902.788, 5398671.5, 454.246 ], [ 506902.717, 5398670.5, 454.255 ], [ 506902.646, 5398669.5, 454.258 ], [ 506902.575000000011642, 5398668.5, 454.251 ], [ 506902.504000000015367, 5398667.5, 454.228 ], [ 506902.5, 5398667.44400000013411, 454.208 ], [ 506902.450000000011642, 5398666.740000000223517, 454.164 ], [ 506901.5, 5398666.807, 454.193 ], [ 506900.5, 5398666.877000000327826, 454.187 ], [ 506899.5, 5398666.946999999694526, 454.162 ], [ 506898.5, 5398667.017, 454.15 ], [ 506897.5, 5398667.087000000290573, 454.141 ], [ 506896.5, 5398667.156999999657273, 454.097 ], [ 506895.5, 5398667.227, 454.027 ], [ 506894.5, 5398667.29700000025332, 453.938 ], [ 506893.5, 5398667.36699999962002, 453.75 ], [ 506892.5, 5398667.437, 453.502 ], [ 506892.03000000002794, 5398667.46999999973923, 453.322 ], [ 506891.69, 5398667.5, 453.567 ], [ 506891.650000000023283, 5398667.08, 452.551 ], [ 506891.61099999997532, 5398666.5, 451.594 ], [ 506891.543, 5398665.5, 450.204 ], [ 506891.5, 5398664.872999999672174, 450.266 ], [ 506891.474999999976717, 5398664.5, 450.267 ], [ 506891.407, 5398663.5, 450.258 ], [ 506891.338999999978114, 5398662.5, 450.25 ], [ 506891.271, 5398661.5, 450.253 ], [ 506891.202999999979511, 5398660.5, 450.251 ], [ 506891.135, 5398659.5, 450.247 ], [ 506891.066999999980908, 5398658.5, 450.251 ], [ 506890.99900000001071, 5398657.5, 450.251 ], [ 506890.930999999982305, 5398656.5, 450.246 ], [ 506890.863000000012107, 5398655.5, 450.243 ], [ 506890.794999999983702, 5398654.5, 450.24 ], [ 506890.727000000013504, 5398653.5, 450.239 ], [ 506890.658999999985099, 5398652.5, 450.247 ], [ 506890.591000000014901, 5398651.5, 450.251 ], [ 506890.522999999986496, 5398650.5, 450.249 ], [ 506890.5, 5398650.161000000312924, 450.251 ], [ 506890.455000000016298, 5398649.5, 450.248 ], [ 506890.386999999987893, 5398648.5, 450.253 ], [ 506890.319000000017695, 5398647.5, 450.253 ], [ 506890.25099999998929, 5398646.5, 450.247 ], [ 506890.183000000019092, 5398645.5, 450.243 ], [ 506890.115, 5398644.5, 450.241 ], [ 506890.047000000020489, 5398643.5, 450.241 ], [ 506889.979, 5398642.5, 450.239 ], [ 506889.911000000021886, 5398641.5, 450.236 ], [ 506889.843, 5398640.5, 450.223 ], [ 506889.775000000023283, 5398639.5, 450.206 ], [ 506889.707, 5398638.5, 450.218 ], [ 506889.669999999983702, 5398637.950000000186265, 450.233 ], [ 506890.5, 5398637.893000000156462, 450.228 ], [ 506891.5, 5398637.825000000186265, 450.222 ], [ 506892.5, 5398637.756, 450.223 ], [ 506893.5, 5398637.688, 450.234 ], [ 506894.5, 5398637.619, 450.244 ], [ 506895.5, 5398637.551, 450.247 ], [ 506896.245999999984633, 5398637.5, 450.249 ], [ 506896.5, 5398637.483, 450.245 ], [ 506897.5, 5398637.41399999987334, 450.264 ], [ 506898.5, 5398637.346, 450.274 ], [ 506899.5, 5398637.276999999769032, 450.277 ], [ 506900.5, 5398637.208999999798834, 450.276 ], [ 506901.5, 5398637.139999999664724, 450.272 ], [ 506902.5, 5398637.071999999694526, 450.281 ], [ 506903.5, 5398637.003999999724329, 450.277 ], [ 506904.43, 5398636.940000000409782, 450.278 ], [ 506904.5, 5398636.934999999590218, 450.286 ], [ 506905.5, 5398636.867999999783933, 450.322 ], [ 506906.5, 5398636.799999999813735, 450.366 ], [ 506907.5, 5398636.733, 450.406 ], [ 506908.5, 5398636.665, 450.431 ], [ 506909.5, 5398636.597, 450.441 ], [ 506909.60999999998603, 5398636.589999999850988, 450.441 ], [ 506909.668, 5398637.5, 450.494 ], [ 506909.710000000020955, 5398638.160000000149012, 450.521 ], [ 506910.5, 5398638.105999999679625, 450.518 ], [ 506911.5, 5398638.037999999709427, 450.511 ], [ 506912.5, 5398637.968999999575317, 450.5 ], [ 506913.5, 5398637.900999999605119, 450.488 ], [ 506914.5, 5398637.832000000402331, 450.472 ], [ 506915.5, 5398637.764000000432134, 450.453 ], [ 506916.5, 5398637.695000000298023, 450.431 ], [ 506917.5, 5398637.627000000327826, 450.405 ], [ 506918.479999999981374, 5398637.559999999590218, 450.38 ], [ 506918.476000000024214, 5398637.5, 450.377 ], [ 506918.413, 5398636.5, 450.305 ], [ 506918.38, 5398635.96999999973923, 450.266 ], [ 506918.5, 5398635.96100000012666, 450.256 ], [ 506918.76, 5398635.940000000409782, 450.248 ], [ 506919.5, 5398635.889999999664724, 450.228 ], [ 506920.5, 5398635.821999999694526, 450.214 ], [ 506921.5, 5398635.754999999888241, 450.215 ], [ 506922.5, 5398635.687, 450.217 ], [ 506923.5, 5398635.620000000111759, 450.195 ], [ 506924.5, 5398635.552000000141561, 450.163 ], [ 506925.272999999986496, 5398635.5, 450.156 ], [ 506925.5, 5398635.485000000335276, 450.147 ], [ 506926.5, 5398635.417000000365078, 450.156 ], [ 506927.5, 5398635.349999999627471, 450.161 ], [ 506928.5, 5398635.281999999657273, 450.153 ], [ 506929.5, 5398635.213999999687076, 450.135 ], [ 506930.5, 5398635.146999999880791, 450.122 ], [ 506931.5, 5398635.079, 450.12 ], [ 506932.5, 5398635.012000000104308, 450.123 ], [ 506933.5, 5398634.94400000013411, 450.13 ], [ 506934.5, 5398634.877000000327826, 450.132 ], [ 506935.5, 5398634.809000000357628, 450.133 ], [ 506936.5, 5398634.74199999962002, 450.136 ], [ 506937.5, 5398634.673999999649823, 450.139 ], [ 506938.5, 5398634.605999999679625, 450.141 ], [ 506939.5, 5398634.53899999987334, 450.138 ], [ 506940.076, 5398634.5, 450.137 ], [ 506940.5, 5398634.471, 450.137 ], [ 506941.5, 5398634.404, 450.133 ], [ 506942.5, 5398634.33600000012666, 450.131 ], [ 506943.5, 5398634.269000000320375, 450.135 ], [ 506944.5, 5398634.201000000350177, 450.14 ], [ 506945.5, 5398634.13399999961257, 450.138 ], [ 506946.5, 5398634.065999999642372, 450.136 ], [ 506947.5, 5398633.997999999672174, 450.141 ], [ 506948.5, 5398633.93099999986589, 450.157 ], [ 506949.5, 5398633.862999999895692, 450.171 ], [ 506950.5, 5398633.796, 450.18 ], [ 506951.5, 5398633.728000000119209, 450.196 ], [ 506952.5, 5398633.661000000312924, 450.223 ], [ 506953.5, 5398633.593000000342727, 450.256 ], [ 506954.5, 5398633.525999999605119, 450.284 ], [ 506954.879000000015367, 5398633.5, 450.287 ], [ 506955.5, 5398633.457999999634922, 450.291 ], [ 506956.5, 5398633.389999999664724, 450.278 ], [ 506957.5, 5398633.322999999858439, 450.238 ], [ 506958.5, 5398633.254999999888241, 450.196 ], [ 506959.5, 5398633.188, 450.19 ], [ 506960.5, 5398633.120000000111759, 450.224 ], [ 506961.5, 5398633.053000000305474, 450.19 ], [ 506962.28000000002794, 5398633.0, 450.131 ], [ 506962.314000000013039, 5398633.5, 450.144 ], [ 506962.382999999972526, 5398634.5, 450.361 ], [ 506962.452, 5398635.5, 450.612 ], [ 506962.5, 5398636.205, 450.841 ], [ 506962.520000000018626, 5398636.5, 450.977 ], [ 506962.588999999978114, 5398637.5, 451.257 ], [ 506962.658, 5398638.5, 451.474 ], [ 506962.726000000024214, 5398639.5, 451.655 ], [ 506962.794999999983702, 5398640.5, 451.817 ], [ 506962.863000000012107, 5398641.5, 451.964 ], [ 506962.931999999971595, 5398642.5, 452.102 ], [ 506963.00099999998929, 5398643.5, 452.231 ], [ 506963.069000000017695, 5398644.5, 452.354 ], [ 506963.137999999977183, 5398645.5, 452.474 ], [ 506963.207, 5398646.5, 452.59 ], [ 506963.275000000023283, 5398647.5, 452.705 ], [ 506963.32, 5398648.150000000372529, 452.763 ], [ 506962.5, 5398648.207000000402331, 452.69 ], [ 506961.5, 5398648.276999999769032, 452.579 ], [ 506960.5, 5398648.346, 452.473 ], [ 506959.5, 5398648.416000000201166, 452.373 ], [ 506958.5, 5398648.485000000335276, 452.28 ], [ 506958.287000000011176, 5398648.5, 452.274 ], [ 506957.5, 5398648.554999999701977, 452.221 ], [ 506956.5, 5398648.623999999836087, 452.142 ], [ 506956.13, 5398648.650000000372529, 452.105 ], [ 506956.188000000023749, 5398649.5, 452.235 ], [ 506956.256999999983236, 5398650.5, 452.38 ], [ 506956.326, 5398651.5, 452.523 ], [ 506956.395000000018626, 5398652.5, 452.664 ], [ 506956.463999999978114, 5398653.5, 452.802 ], [ 506956.5, 5398654.029, 452.874 ], [ 506956.532, 5398654.5, 452.951 ], [ 506956.601000000024214, 5398655.5, 453.082 ], [ 506956.669999999983702, 5398656.5, 453.209 ], [ 506956.739, 5398657.5, 453.334 ], [ 506956.808000000019092, 5398658.5, 453.454 ], [ 506956.87599999998929, 5398659.5, 453.568 ], [ 506956.945, 5398660.5, 453.675 ], [ 506957.01400000002468, 5398661.5, 453.773 ], [ 506957.06, 5398662.17, 453.822 ], [ 506957.5, 5398662.139000000432134, 453.862 ], [ 506958.5, 5398662.06900000013411, 453.941 ], [ 506959.5, 5398662.0, 454.027 ], [ 506960.5, 5398661.929999999701977, 454.115 ], [ 506960.64000000001397, 5398661.92, 454.121 ], [ 506960.669999999983702, 5398662.179999999701977, 454.139 ], [ 506960.691999999980908, 5398662.5, 454.17 ], [ 506960.761, 5398663.5, 454.204 ], [ 506960.829000000027008, 5398664.5, 454.223 ], [ 506960.897999999986496, 5398665.5, 454.234 ], [ 506960.966000000014901, 5398666.5, 454.241 ], [ 506961.034999999974389, 5398667.5, 454.25 ], [ 506961.103, 5398668.5, 454.257 ], [ 506961.172000000020489, 5398669.5, 454.247 ], [ 506961.200000000011642, 5398669.910000000149012, 454.237 ] ] ] } },
{ "type": "Feature", "properties": { "fid": 209, "gml_id": "DEBW_5221000QVyB", "creationDate": "2024-11-25", "informationSystem": "http://repository.gdi-de.org/schemas/adv/citygml/fdv/art.htm#_9100", "name": "DEBWL5221000QVyB", "Gemeindeschluessel": "08111000", "Geometrietyp2DReferenz": 3000, "DatenquelleDachhoehe": [ 1000 ], "Grundrissaktualitaet": "2024-04-01", "DatenquelleBodenhoehe": [ 1100 ], "DatenquelleLage": [ 1000 ], "function": "31001_2112", "roofType": 1000, "measuredHeight": 4.435, "measuredHeight_uom": "urn:adv:uom:m", "CountryName": "Germany", "LocalityName": "Stuttgart", "ThoroughfareName": "Allmandring", "ThoroughfareNumber": "28C, null", "consistsOfBuildingPart|BuildingPart|creationDate": null, "consistsOfBuildingPart|BuildingPart|roofType": null, "consistsOfBuildingPart|BuildingPart|measuredHeight": null, "consistsOfBuildingPart|BuildingPart|measuredHeight_uom": null }, "geometry": { "type": "MultiLineString", "coordinates": [ [ [ 507016.849999999976717, 5398913.660000000149012, 453.368 ], [ 507016.805, 5398914.5, 453.338 ], [ 507016.75099999998929, 5398915.5, 453.309 ], [ 507016.696, 5398916.5, 453.297 ], [ 507016.642, 5398917.5, 453.303 ], [ 507016.587999999988824, 5398918.5, 453.367 ], [ 507016.549999999988358, 5398919.21, 453.41 ], [ 507016.5, 5398919.207000000402331, 453.407 ], [ 507015.5, 5398919.150999999605119, 453.368 ], [ 507014.5, 5398919.093999999575317, 453.32 ], [ 507013.5, 5398919.037999999709427, 453.284 ], [ 507012.5, 5398918.980999999679625, 453.256 ], [ 507011.5, 5398918.924999999813735, 453.229 ], [ 507010.5, 5398918.869, 453.201 ], [ 507009.5, 5398918.812, 453.17 ], [ 507008.5, 5398918.756, 453.145 ], [ 507008.21999999997206, 5398918.740000000223517, 453.137 ], [ 507008.234, 5398918.5, 453.138 ], [ 507008.291000000026543, 5398917.5, 453.147 ], [ 507008.348, 5398916.5, 453.161 ], [ 507008.38, 5398915.940000000409782, 453.168 ], [ 507007.5, 5398915.896999999880791, 453.168 ], [ 507006.5, 5398915.849000000394881, 453.177 ], [ 507005.5, 5398915.801, 453.182 ], [ 507004.5, 5398915.752000000327826, 453.172 ], [ 507003.5, 5398915.704, 453.152 ], [ 507002.5, 5398915.656000000424683, 453.147 ], [ 507001.5, 5398915.606999999843538, 453.155 ], [ 507000.5, 5398915.559000000357628, 453.152 ], [ 506999.5, 5398915.511, 453.157 ], [ 506999.282, 5398915.5, 453.168 ], [ 506998.5, 5398915.462000000290573, 453.205 ], [ 506997.5, 5398915.41399999987334, 453.236 ], [ 506996.5, 5398915.365000000223517, 453.234 ], [ 506995.56, 5398915.320000000298023, 453.203 ], [ 506995.555, 5398915.5, 453.19 ], [ 506995.526000000012573, 5398916.5, 453.102 ], [ 506995.520000000018626, 5398916.700000000186265, 453.088 ], [ 506995.5, 5398916.699, 453.087 ], [ 506994.5, 5398916.643000000156462, 453.06 ], [ 506993.5, 5398916.587000000290573, 453.033 ], [ 506992.5, 5398916.531000000424683, 453.008 ], [ 506991.935999999986961, 5398916.5, 452.994 ], [ 506991.5, 5398916.475999999791384, 452.999 ], [ 506990.5, 5398916.42, 452.981 ], [ 506989.5, 5398916.364, 452.969 ], [ 506988.5, 5398916.308000000193715, 452.951 ], [ 506987.5, 5398916.252000000327826, 452.921 ], [ 506986.5, 5398916.196999999694526, 452.904 ], [ 506985.5, 5398916.140999999828637, 452.904 ], [ 506984.5, 5398916.085, 452.894 ], [ 506984.409999999974389, 5398916.08, 452.886 ], [ 506984.443000000028405, 5398915.5, 452.857 ], [ 506984.5, 5398914.5, 452.707 ], [ 506984.5, 5398914.494, 452.657 ], [ 506984.555999999982305, 5398913.5, 452.417 ], [ 506984.613000000012107, 5398912.5, 452.223 ], [ 506984.669999999983702, 5398911.5, 452.244 ], [ 506984.727000000013504, 5398910.5, 452.367 ], [ 506984.783, 5398909.5, 452.539 ], [ 506984.81, 5398909.03000000026077, 452.599 ], [ 506985.5, 5398909.06900000013411, 452.767 ], [ 506986.5, 5398909.125, 452.979 ], [ 506987.5, 5398909.18099999986589, 453.177 ], [ 506988.5, 5398909.236999999731779, 453.321 ], [ 506989.5, 5398909.292999999597669, 453.392 ], [ 506990.5, 5398909.349000000394881, 453.421 ], [ 506991.5, 5398909.40500000026077, 453.436 ], [ 506992.5, 5398909.46100000012666, 453.449 ], [ 506993.191, 5398909.5, 453.457 ], [ 506993.5, 5398909.517, 453.471 ], [ 506994.5, 5398909.572999999858439, 453.5 ], [ 506995.5, 5398909.628999999724329, 453.514 ], [ 506996.5, 5398909.685999999754131, 453.523 ], [ 506997.5, 5398909.74199999962002, 453.531 ], [ 506998.5, 5398909.798000000417233, 453.539 ], [ 506999.5, 5398909.854000000283122, 453.544 ], [ 507000.5, 5398909.910000000149012, 453.54 ], [ 507001.5, 5398909.966, 453.529 ], [ 507002.5, 5398910.021999999880791, 453.513 ], [ 507003.5, 5398910.07799999974668, 453.491 ], [ 507004.5, 5398910.13399999961257, 453.464 ], [ 507005.5, 5398910.190000000409782, 453.43 ], [ 507006.03000000002794, 5398910.21999999973923, 453.41 ], [ 507006.01500000001397, 5398910.5, 453.374 ], [ 507005.962, 5398911.5, 453.303 ], [ 507005.908999999985099, 5398912.5, 453.252 ], [ 507005.88, 5398913.04, 453.237 ], [ 507006.5, 5398913.075000000186265, 453.216 ], [ 507007.5, 5398913.132000000216067, 453.181 ], [ 507008.5, 5398913.188, 453.171 ], [ 507009.5, 5398913.245000000111759, 453.199 ], [ 507010.5, 5398913.301, 453.236 ], [ 507011.5, 5398913.358, 453.278 ], [ 507012.5, 5398913.41399999987334, 453.329 ], [ 507013.5, 5398913.471, 453.373 ], [ 507014.018999999971129, 5398913.5, 453.356 ], [ 507014.5, 5398913.526999999769032, 453.358 ], [ 507015.5, 5398913.583999999798834, 453.307 ], [ 507016.5, 5398913.639999999664724, 453.331 ], [ 507016.849999999976717, 5398913.660000000149012, 453.368 ] ] ] } },
{ "type": "Feature", "properties": { "fid": 210, "gml_id": "DEBW_5221000QWf3", "creationDate": "2024-11-25", "informationSystem": "http://repository.gdi-de.org/schemas/adv/citygml/fdv/art.htm#_9100", "name": "DEBWL5221000QWf3", "Gemeindeschluessel": "08111000", "Geometrietyp2DReferenz": 3000, "DatenquelleDachhoehe": [ 1000 ], "Grundrissaktualitaet": "2024-04-01", "DatenquelleBodenhoehe": [ 1100 ], "DatenquelleLage": [ 1000 ], "function": "31001_2140", "roofType": 2100, "measuredHeight": 3.673, "measuredHeight_uom": "urn:adv:uom:m", "CountryName": "Germany", "LocalityName": "Stuttgart", "ThoroughfareName": "Allmandring", "ThoroughfareNumber": null, "consistsOfBuildingPart|BuildingPart|creationDate": null, "consistsOfBuildingPart|BuildingPart|roofType": null, "consistsOfBuildingPart|BuildingPart|measuredHeight": null, "consistsOfBuildingPart|BuildingPart|measuredHeight_uom": null }, "geometry": { "type": "MultiLineString", "coordinates": [ [ [ 506933.789999999979045, 5398620.04, 450.137 ], [ 506934.5, 5398619.99100000038743, 450.156 ], [ 506935.5, 5398619.92200000025332, 450.183 ], [ 506936.5, 5398619.853000000119209, 450.214 ], [ 506937.5, 5398619.784, 450.254 ], [ 506938.5, 5398619.714999999850988, 450.3 ], [ 506939.5, 5398619.645999999716878, 450.356 ], [ 506940.5, 5398619.576999999582767, 450.42 ], [ 506941.5, 5398619.50800000037998, 450.492 ], [ 506941.62, 5398619.5, 450.502 ], [ 506942.5, 5398619.439000000245869, 450.62 ], [ 506943.5, 5398619.370000000111759, 450.74 ], [ 506943.94, 5398619.339999999850988, 450.772 ], [ 506943.950000000011642, 5398619.5, 450.741 ], [ 506944.01, 5398620.5, 450.544 ], [ 506944.020000000018626, 5398620.660000000149012, 450.516 ], [ 506943.5, 5398620.696000000461936, 450.491 ], [ 506942.5, 5398620.765999999828637, 450.427 ], [ 506941.5, 5398620.83600000012666, 450.386 ], [ 506940.5, 5398620.90500000026077, 450.345 ], [ 506939.5, 5398620.974999999627471, 450.286 ], [ 506938.5, 5398621.045, 450.239 ], [ 506937.5, 5398621.114, 450.205 ], [ 506936.5, 5398621.184000000357628, 450.177 ], [ 506935.5, 5398621.253999999724329, 450.155 ], [ 506934.5, 5398621.322999999858439, 450.136 ], [ 506933.830000000016298, 5398621.370000000111759, 450.117 ], [ 506933.804, 5398620.5, 450.129 ], [ 506933.789999999979045, 5398620.04, 450.137 ] ] ] } },
{ "type": "Feature", "properties": { "fid": 231, "gml_id": "DEBW_5221000QWmi", "creationDate": "2024-11-25", "informationSystem": "http://repository.gdi-de.org/schemas/adv/citygml/fdv/art.htm#_9100", "name": "DEBWL5221000QWmi", "Gemeindeschluessel": "08111000", "Geometrietyp2DReferenz": 3000, "DatenquelleDachhoehe": [ 1000 ], "Grundrissaktualitaet": "2024-04-01", "DatenquelleBodenhoehe": [ 1100 ], "DatenquelleLage": [ 1000 ], "function": "31001_2020", "roofType": 1000, "measuredHeight": 4.042, "measuredHeight_uom": "urn:adv:uom:m", "CountryName": "Germany", "LocalityName": "Stuttgart", "ThoroughfareName": "Allmandring", "ThoroughfareNumber": "30E, null", "consistsOfBuildingPart|BuildingPart|creationDate": null, "consistsOfBuildingPart|BuildingPart|roofType": null, "consistsOfBuildingPart|BuildingPart|measuredHeight": null, "consistsOfBuildingPart|BuildingPart|measuredHeight_uom": null }, "geometry": { "type": "MultiLineString", "coordinates": [ [ [ 506988.03000000002794, 5398615.160000000149012, 453.244 ], [ 506988.5, 5398615.127999999560416, 453.202 ], [ 506989.5, 5398615.059000000357628, 453.177 ], [ 506990.5, 5398614.99100000038743, 453.152 ], [ 506991.5, 5398614.923000000417233, 453.121 ], [ 506992.5, 5398614.854000000283122, 453.105 ], [ 506993.5, 5398614.786000000312924, 453.097 ], [ 506994.5, 5398614.717000000178814, 453.084 ], [ 506995.5, 5398614.649000000208616, 453.067 ], [ 506996.5, 5398614.581000000238419, 453.047 ], [ 506997.5, 5398614.512000000104308, 453.03 ], [ 506997.679, 5398614.5, 453.027 ], [ 506998.5, 5398614.44400000013411, 453.003 ], [ 506999.5, 5398614.375, 452.974 ], [ 507000.5, 5398614.307, 452.943 ], [ 507001.5, 5398614.239, 452.925 ], [ 507002.5, 5398614.17, 452.914 ], [ 507003.5, 5398614.102, 452.905 ], [ 507004.5, 5398614.032999999821186, 452.907 ], [ 507005.5, 5398613.964999999850988, 452.944 ], [ 507005.71999999997206, 5398613.950000000186265, 452.951 ], [ 507005.756999999983236, 5398614.5, 452.993 ], [ 507005.822999999974854, 5398615.5, 453.047 ], [ 507005.89000000001397, 5398616.5, 453.085 ], [ 507005.956, 5398617.5, 453.111 ], [ 507005.979999999981374, 5398617.860000000335276, 453.116 ], [ 507005.5, 5398617.893000000156462, 453.116 ], [ 507004.669999999983702, 5398617.950000000186265, 453.109 ], [ 507004.707, 5398618.5, 453.126 ], [ 507004.775000000023283, 5398619.5, 453.147 ], [ 507004.789999999979045, 5398619.71999999973923, 453.15 ], [ 507005.5, 5398619.671, 453.146 ], [ 507006.099999999976717, 5398619.629999999888241, 453.142 ], [ 507006.158999999985099, 5398620.5, 453.15 ], [ 507006.228, 5398621.5, 453.157 ], [ 507006.295999999972992, 5398622.5, 453.17 ], [ 507006.364, 5398623.5, 453.192 ], [ 507006.433000000019092, 5398624.5, 453.218 ], [ 507006.5, 5398625.489, 453.236 ], [ 507006.50099999998929, 5398625.5, 453.239 ], [ 507006.569000000017695, 5398626.5, 453.255 ], [ 507006.636999999987893, 5398627.5, 453.273 ], [ 507006.706, 5398628.5, 453.291 ], [ 507006.773999999975786, 5398629.5, 453.311 ], [ 507006.842, 5398630.5, 453.329 ], [ 507006.909999999974389, 5398631.5, 453.377 ], [ 507006.919999999983702, 5398631.639999999664724, 453.393 ], [ 507006.5, 5398631.668999999761581, 453.358 ], [ 507005.5, 5398631.737999999895692, 453.284 ], [ 507004.5, 5398631.807, 453.243 ], [ 507003.5, 5398631.876000000163913, 453.2 ], [ 507002.5, 5398631.945000000298023, 453.172 ], [ 507001.5, 5398632.014000000432134, 453.157 ], [ 507000.5, 5398632.082999999634922, 453.144 ], [ 506999.5, 5398632.151999999769032, 453.134 ], [ 506998.5, 5398632.221, 453.115 ], [ 506997.5, 5398632.29, 453.094 ], [ 506996.5, 5398632.359000000171363, 453.081 ], [ 506995.5, 5398632.428000000305474, 453.07 ], [ 506994.5, 5398632.497000000439584, 453.061 ], [ 506994.457, 5398632.5, 453.065 ], [ 506993.5, 5398632.565999999642372, 453.086 ], [ 506992.5, 5398632.634999999776483, 453.133 ], [ 506991.5, 5398632.704, 453.183 ], [ 506990.5, 5398632.773, 453.218 ], [ 506989.5, 5398632.842000000178814, 453.26 ], [ 506989.24, 5398632.860000000335276, 453.311 ], [ 506989.215000000025611, 5398632.5, 453.245 ], [ 506989.147, 5398631.5, 453.215 ], [ 506989.079000000027008, 5398630.5, 453.193 ], [ 506989.01, 5398629.5, 453.167 ], [ 506988.941999999980908, 5398628.5, 453.149 ], [ 506988.87400000001071, 5398627.5, 453.139 ], [ 506988.805, 5398626.5, 453.147 ], [ 506988.737000000022817, 5398625.5, 453.173 ], [ 506988.668, 5398624.5, 453.209 ], [ 506988.599999999976717, 5398623.5, 453.234 ], [ 506988.532, 5398622.5, 453.238 ], [ 506988.5, 5398622.035000000149012, 453.233 ], [ 506988.462999999988824, 5398621.5, 453.256 ], [ 506988.395000000018626, 5398620.5, 453.25 ], [ 506988.327, 5398619.5, 453.262 ], [ 506988.257999999972526, 5398618.5, 453.27 ], [ 506988.19, 5398617.5, 453.273 ], [ 506988.121999999973923, 5398616.5, 453.274 ], [ 506988.053000000014435, 5398615.5, 453.257 ], [ 506988.03000000002794, 5398615.160000000149012, 453.244 ] ] ] } },
{ "type": "Feature", "properties": { "fid": 236, "gml_id": "DEBW_5221000QWpM", "creationDate": "2024-11-25", "informationSystem": "http://repository.gdi-de.org/schemas/adv/citygml/fdv/art.htm#_9100", "name": "DEBWL5221000QWpM", "Gemeindeschluessel": "08111000", "Geometrietyp2DReferenz": 3000, "DatenquelleDachhoehe": [ 1000 ], "Grundrissaktualitaet": "2024-04-01", "DatenquelleBodenhoehe": [ 1100 ], "DatenquelleLage": [ 1000 ], "function": "31001_2112", "roofType": 2100, "measuredHeight": 3.056, "measuredHeight_uom": "urn:adv:uom:m", "CountryName": "Germany", "LocalityName": "Stuttgart", "ThoroughfareName": "Allmandring", "ThoroughfareNumber": null, "consistsOfBuildingPart|BuildingPart|creationDate": null, "consistsOfBuildingPart|BuildingPart|roofType": null, "consistsOfBuildingPart|BuildingPart|measuredHeight": null, "consistsOfBuildingPart|BuildingPart|measuredHeight_uom": null }, "geometry": { "type": "MultiLineString", "coordinates": [ [ [ 506946.450000000011642, 5398753.410000000149012, 452.357 ], [ 506946.5, 5398753.111999999731779, 452.341 ], [ 506946.602000000013504, 5398752.5, 452.341 ], [ 506946.770000000018626, 5398751.5, 452.311 ], [ 506946.78000000002794, 5398751.440000000409782, 452.308 ], [ 506947.147, 5398751.5, 452.303 ], [ 506947.5, 5398751.558000000193715, 452.291 ], [ 506948.5, 5398751.721, 452.274 ], [ 506949.5, 5398751.884999999776483, 452.261 ], [ 506950.5, 5398752.048000000417233, 452.253 ], [ 506951.5, 5398752.21100000012666, 452.248 ], [ 506952.5, 5398752.375, 452.244 ], [ 506953.26500000001397, 5398752.5, 452.248 ], [ 506953.5, 5398752.537999999709427, 452.247 ], [ 506954.5, 5398752.701999999582767, 452.246 ], [ 506954.549999999988358, 5398752.71, 452.246 ], [ 506954.5, 5398753.00800000037998, 452.251 ], [ 506954.418, 5398753.5, 452.267 ], [ 506954.25, 5398754.5, 452.269 ], [ 506954.21999999997206, 5398754.679999999701977, 452.266 ], [ 506953.5, 5398754.562, 452.273 ], [ 506953.119, 5398754.5, 452.277 ], [ 506952.5, 5398754.399000000208616, 452.284 ], [ 506951.5, 5398754.235000000335276, 452.292 ], [ 506950.5, 5398754.071999999694526, 452.293 ], [ 506949.5, 5398753.909, 452.291 ], [ 506948.5, 5398753.745000000111759, 452.291 ], [ 506947.5, 5398753.582000000402331, 452.295 ], [ 506947.00099999998929, 5398753.5, 452.313 ], [ 506946.5, 5398753.417999999597669, 452.34 ], [ 506946.450000000011642, 5398753.410000000149012, 452.357 ] ] ] } },
{ "type": "Feature", "properties": { "fid": 237, "gml_id": "DEBW_5221000QWoa", "creationDate": "2024-11-25", "informationSystem": "http://repository.gdi-de.org/schemas/adv/citygml/fdv/art.htm#_9100", "name": "DEBWL5221000QWoa", "Gemeindeschluessel": "08111000", "Geometrietyp2DReferenz": 3000, "DatenquelleDachhoehe": [ 1000 ], "Grundrissaktualitaet": "2024-04-01", "DatenquelleBodenhoehe": [ 1100 ], "DatenquelleLage": [ 1000 ], "function": "31001_2140", "roofType": 1000, "measuredHeight": 3.026, "measuredHeight_uom": "urn:adv:uom:m", "CountryName": "Germany", "LocalityName": "Stuttgart", "ThoroughfareName": "Allmandring", "ThoroughfareNumber": null, "consistsOfBuildingPart|BuildingPart|creationDate": null, "consistsOfBuildingPart|BuildingPart|roofType": null, "consistsOfBuildingPart|BuildingPart|measuredHeight": null, "consistsOfBuildingPart|BuildingPart|measuredHeight_uom": null }, "geometry": { "type": "MultiLineString", "coordinates": [ [ [ 506931.28000000002794, 5398680.940000000409782, 454.221 ], [ 506931.32, 5398681.5, 454.366 ], [ 506931.391, 5398682.5, 454.682 ], [ 506931.462, 5398683.5, 454.973 ], [ 506931.5, 5398684.031999999657273, 455.075 ], [ 506931.533, 5398684.5, 455.184 ], [ 506931.604, 5398685.5, 455.304 ], [ 506931.64000000001397, 5398686.0, 455.34 ], [ 506931.5, 5398686.009999999776483, 455.335 ], [ 506930.5, 5398686.079, 455.315 ], [ 506929.5, 5398686.148, 455.268 ], [ 506928.5, 5398686.218000000342727, 455.238 ], [ 506927.5, 5398686.286999999545515, 455.177 ], [ 506926.5, 5398686.355999999679625, 455.017 ], [ 506925.5, 5398686.426, 454.826 ], [ 506924.5, 5398686.495000000111759, 454.797 ], [ 506924.429, 5398686.5, 454.974 ], [ 506923.5, 5398686.564000000245869, 455.01 ], [ 506922.5, 5398686.63399999961257, 455.027 ], [ 506921.5, 5398686.70299999974668, 454.986 ], [ 506920.5, 5398686.771999999880791, 455.024 ], [ 506919.5, 5398686.842000000178814, 455.059 ], [ 506918.5, 5398686.911000000312924, 455.023 ], [ 506917.5, 5398686.980000000447035, 454.972 ], [ 506916.5, 5398687.049999999813735, 454.906 ], [ 506915.5, 5398687.119, 454.864 ], [ 506914.5, 5398687.188, 454.876 ], [ 506913.5, 5398687.25800000037998, 454.978 ], [ 506912.5, 5398687.326999999582767, 455.132 ], [ 506911.5, 5398687.395999999716878, 455.188 ], [ 506910.5, 5398687.466, 455.217 ], [ 506910.006999999983236, 5398687.5, 455.237 ], [ 506909.5, 5398687.535000000149012, 455.236 ], [ 506908.5, 5398687.605000000447035, 455.241 ], [ 506907.5, 5398687.673999999649823, 455.254 ], [ 506906.5, 5398687.742999999783933, 455.256 ], [ 506905.5, 5398687.813, 455.263 ], [ 506904.5, 5398687.882000000216067, 455.264 ], [ 506903.950000000011642, 5398687.92, 455.245 ], [ 506903.919, 5398687.5, 455.215 ], [ 506903.846000000019558, 5398686.5, 455.082 ], [ 506903.772999999986496, 5398685.5, 454.904 ], [ 506903.699000000022352, 5398684.5, 454.663 ], [ 506903.62599999998929, 5398683.5, 454.381 ], [ 506903.580000000016298, 5398682.870000000111759, 454.231 ], [ 506904.5, 5398682.80599999986589, 454.18 ], [ 506905.5, 5398682.735999999567866, 454.163 ], [ 506906.5, 5398682.667000000365078, 454.166 ], [ 506907.5, 5398682.597, 454.176 ], [ 506908.5, 5398682.526999999769032, 454.175 ], [ 506908.89000000001397, 5398682.5, 454.171 ], [ 506909.5, 5398682.457999999634922, 454.139 ], [ 506910.5, 5398682.388000000268221, 454.132 ], [ 506911.5, 5398682.318, 454.126 ], [ 506912.5, 5398682.247999999672174, 454.114 ], [ 506913.5, 5398682.178999999538064, 454.115 ], [ 506914.5, 5398682.109000000171363, 454.115 ], [ 506915.5, 5398682.03899999987334, 454.115 ], [ 506916.5, 5398681.96999999973923, 454.125 ], [ 506917.5, 5398681.900000000372529, 454.142 ], [ 506918.5, 5398681.83, 454.147 ], [ 506919.5, 5398681.761, 454.143 ], [ 506920.5, 5398681.690999999642372, 454.142 ], [ 506921.5, 5398681.621000000275671, 454.126 ], [ 506922.5, 5398681.552000000141561, 454.121 ], [ 506923.243000000016764, 5398681.5, 454.126 ], [ 506923.5, 5398681.481999999843538, 454.121 ], [ 506924.5, 5398681.411999999545515, 454.112 ], [ 506925.5, 5398681.343000000342727, 454.104 ], [ 506926.5, 5398681.273, 454.106 ], [ 506927.5, 5398681.20299999974668, 454.122 ], [ 506928.5, 5398681.13399999961257, 454.142 ], [ 506929.5, 5398681.064000000245869, 454.152 ], [ 506930.5, 5398680.994, 454.191 ], [ 506931.28000000002794, 5398680.940000000409782, 454.221 ] ] ] } },
{ "type": "Feature", "properties": { "fid": 242, "gml_id": "DEBW_5221000QWrB", "creationDate": "2024-11-25", "informationSystem": "http://repository.gdi-de.org/schemas/adv/citygml/fdv/art.htm#_9100", "name": "DEBWL5221000QWrB", "Gemeindeschluessel": "08111000", "Geometrietyp2DReferenz": 3000, "DatenquelleDachhoehe": [ 1000 ], "Grundrissaktualitaet": "2024-04-01", "DatenquelleBodenhoehe": [ 1100 ], "DatenquelleLage": [ 1000 ], "function": "31001_3023", "roofType": 1000, "measuredHeight": 3.494, "measuredHeight_uom": "urn:adv:uom:m", "CountryName": "Germany", "LocalityName": "Stuttgart", "ThoroughfareName": "Allmandring", "ThoroughfareNumber": "28F, null", "consistsOfBuildingPart|BuildingPart|creationDate": null, "consistsOfBuildingPart|BuildingPart|roofType": null, "consistsOfBuildingPart|BuildingPart|measuredHeight": null, "consistsOfBuildingPart|BuildingPart|measuredHeight_uom": null }, "geometry": { "type": "MultiLineString", "coordinates": [ [ [ 506989.020000000018626, 5398737.679999999701977, 455.726 ], [ 506989.049999999988358, 5398737.5, 455.734 ], [ 506989.216000000014901, 5398736.5, 455.781 ], [ 506989.382999999972526, 5398735.5, 455.798 ], [ 506989.5, 5398734.793999999761581, 455.793 ], [ 506989.549, 5398734.5, 455.795 ], [ 506989.715000000025611, 5398733.5, 455.802 ], [ 506989.881, 5398732.5, 455.806 ], [ 506990.048, 5398731.5, 455.812 ], [ 506990.213999999978114, 5398730.5, 455.815 ], [ 506990.38, 5398729.5, 455.817 ], [ 506990.5, 5398728.78000000026077, 455.815 ], [ 506990.547000000020489, 5398728.5, 455.816 ], [ 506990.712999999988824, 5398727.5, 455.816 ], [ 506990.879000000015367, 5398726.5, 455.809 ], [ 506991.044999999983702, 5398725.5, 455.817 ], [ 506991.212, 5398724.5, 455.823 ], [ 506991.26, 5398724.21, 455.822 ], [ 506991.37699999997858, 5398723.5, 455.824 ], [ 506991.5, 5398722.748999999836087, 455.82 ], [ 506991.541000000026543, 5398722.5, 455.819 ], [ 506991.705000000016298, 5398721.5, 455.8 ], [ 506991.87, 5398720.5, 455.8 ], [ 506992.033999999985099, 5398719.5, 455.811 ], [ 506992.197999999974854, 5398718.5, 455.811 ], [ 506992.362000000022817, 5398717.5, 455.811 ], [ 506992.5, 5398716.662999999709427, 455.807 ], [ 506992.527, 5398716.5, 455.808 ], [ 506992.691, 5398715.5, 455.808 ], [ 506992.854999999981374, 5398714.5, 455.802 ], [ 506993.020000000018626, 5398713.5, 455.804 ], [ 506993.184, 5398712.5, 455.805 ], [ 506993.348, 5398711.5, 455.8 ], [ 506993.5, 5398710.576999999582767, 455.795 ], [ 506993.512999999977183, 5398710.5, 455.795 ], [ 506993.677000000025146, 5398709.5, 455.797 ], [ 506993.841000000014901, 5398708.5, 455.799 ], [ 506994.006, 5398707.5, 455.788 ], [ 506994.169999999983702, 5398706.5, 455.778 ], [ 506994.333999999973457, 5398705.5, 455.788 ], [ 506994.49800000002142, 5398704.5, 455.796 ], [ 506994.5, 5398704.49100000038743, 455.786 ], [ 506994.663, 5398703.5, 455.785 ], [ 506994.827, 5398702.5, 455.776 ], [ 506994.990999999979977, 5398701.5, 455.751 ], [ 506995.156000000017229, 5398700.5, 455.746 ], [ 506995.32, 5398699.5, 455.637 ], [ 506995.5, 5398699.53000000026077, 455.575 ], [ 506996.5, 5398699.69400000013411, 455.522 ], [ 506997.5, 5398699.859000000171363, 455.522 ], [ 506998.5, 5398700.023, 455.537 ], [ 506999.5, 5398700.188, 455.541 ], [ 507000.5, 5398700.352, 455.534 ], [ 507001.396, 5398700.5, 455.528 ], [ 507001.5, 5398700.517, 455.523 ], [ 507002.5, 5398700.682, 455.509 ], [ 507003.5, 5398700.846, 455.505 ], [ 507004.07, 5398700.940000000409782, 455.506 ], [ 507003.978, 5398701.5, 455.504 ], [ 507003.813000000023749, 5398702.5, 455.496 ], [ 507003.647999999986496, 5398703.5, 455.49 ], [ 507003.5, 5398704.395999999716878, 455.489 ], [ 507003.483, 5398704.5, 455.496 ], [ 507003.318000000028405, 5398705.5, 455.507 ], [ 507003.153, 5398706.5, 455.518 ], [ 507002.988000000012107, 5398707.5, 455.525 ], [ 507002.822999999974854, 5398708.5, 455.531 ], [ 507002.658, 5398709.5, 455.524 ], [ 507002.5, 5398710.46, 455.506 ], [ 507002.493000000016764, 5398710.5, 455.503 ], [ 507002.327999999979511, 5398711.5, 455.492 ], [ 507002.163999999989755, 5398712.5, 455.498 ], [ 507001.99900000001071, 5398713.5, 455.503 ], [ 507001.833999999973457, 5398714.5, 455.509 ], [ 507001.669, 5398715.5, 455.512 ], [ 507001.504000000015367, 5398716.5, 455.508 ], [ 507001.5, 5398716.523, 455.508 ], [ 507001.338999999978114, 5398717.5, 455.505 ], [ 507001.174, 5398718.5, 455.507 ], [ 507001.009000000020023, 5398719.5, 455.506 ], [ 507000.843999999982771, 5398720.5, 455.51 ], [ 507000.679, 5398721.5, 455.503 ], [ 507000.51400000002468, 5398722.5, 455.504 ], [ 507000.5, 5398722.587000000290573, 455.504 ], [ 507000.348999999987427, 5398723.5, 455.51 ], [ 507000.184, 5398724.5, 455.52 ], [ 507000.020000000018626, 5398725.5, 455.534 ], [ 506999.854999999981374, 5398726.5, 455.537 ], [ 506999.69, 5398727.5, 455.526 ], [ 506999.525000000023283, 5398728.5, 455.523 ], [ 506999.5, 5398728.650000000372529, 455.524 ], [ 506999.35999999998603, 5398729.5, 455.536 ], [ 506999.195, 5398730.5, 455.547 ], [ 506999.03000000002794, 5398731.5, 455.539 ], [ 506998.865, 5398732.5, 455.537 ], [ 506998.700000000011642, 5398733.5, 455.533 ], [ 506998.534999999974389, 5398734.5, 455.524 ], [ 506998.5, 5398734.713999999687076, 455.525 ], [ 506998.37, 5398735.5, 455.528 ], [ 506998.205000000016298, 5398736.5, 455.532 ], [ 506998.039999999979045, 5398737.5, 455.545 ], [ 506997.87599999998929, 5398738.5, 455.544 ], [ 506997.770000000018626, 5398739.139999999664724, 455.538 ], [ 506997.590000000025611, 5398739.110000000335276, 455.539 ], [ 506997.5, 5398739.09499999973923, 455.54 ], [ 506996.5, 5398738.928000000305474, 455.53 ], [ 506995.5, 5398738.759999999776483, 455.507 ], [ 506994.5, 5398738.593000000342727, 455.498 ], [ 506993.943000000028405, 5398738.5, 455.501 ], [ 506993.5, 5398738.426, 455.505 ], [ 506992.5, 5398738.25899999961257, 455.515 ], [ 506991.5, 5398738.091, 455.527 ], [ 506990.5, 5398737.923999999649823, 455.542 ], [ 506989.5, 5398737.757000000216067, 455.63 ], [ 506989.21999999997206, 5398737.71, 455.705 ], [ 506989.020000000018626, 5398737.679999999701977, 455.726 ] ] ] } },
{ "type": "Feature", "properties": { "fid": 246, "gml_id": "DEBW_5221000QWqT", "creationDate": "2024-11-25", "informationSystem": "http://repository.gdi-de.org/schemas/adv/citygml/fdv/art.htm#_9100", "name": "DEBWL5221000QWqT", "Gemeindeschluessel": "08111000", "Geometrietyp2DReferenz": 3000, "DatenquelleDachhoehe": [ 1000 ], "Grundrissaktualitaet": "2024-04-01", "DatenquelleBodenhoehe": [ 1100 ], "DatenquelleLage": [ 1000 ], "function": "31001_2112", "roofType": 1000, "measuredHeight": 18.532, "measuredHeight_uom": "urn:adv:uom:m", "CountryName": "Germany", "LocalityName": "Stuttgart", "ThoroughfareName": "Allmandring", "ThoroughfareNumber": null, "consistsOfBuildingPart|BuildingPart|creationDate": null, "consistsOfBuildingPart|BuildingPart|roofType": null, "consistsOfBuildingPart|BuildingPart|measuredHeight": null, "consistsOfBuildingPart|BuildingPart|measuredHeight_uom": null }, "geometry": { "type": "MultiLineString", "coordinates": [ [ [ 506931.340000000025611, 5398581.940000000409782, 450.006 ], [ 506931.378000000026077, 5398582.5, 450.141 ], [ 506931.446999999985565, 5398583.5, 450.428 ], [ 506931.450000000011642, 5398583.54, 450.433 ], [ 506930.5, 5398583.605000000447035, 450.112 ], [ 506929.5, 5398583.673000000417233, 449.793 ], [ 506928.5, 5398583.74199999962002, 449.66 ], [ 506927.5, 5398583.809999999590218, 449.533 ], [ 506926.5, 5398583.877999999560416, 449.359 ], [ 506926.18, 5398583.900000000372529, 449.288 ], [ 506926.153, 5398583.5, 449.305 ], [ 506926.083999999973457, 5398582.5, 449.375 ], [ 506926.07, 5398582.29, 449.391 ], [ 506926.5, 5398582.261, 449.433 ], [ 506927.5, 5398582.195000000298023, 449.559 ], [ 506928.5, 5398582.128999999724329, 449.672 ], [ 506929.5, 5398582.062, 449.774 ], [ 506930.5, 5398581.996000000275671, 449.893 ], [ 506931.340000000025611, 5398581.940000000409782, 450.006 ] ] ] } },
{ "type": "Feature", "properties": { "fid": 285, "gml_id": "DEBW_5221000QWyg", "creationDate": "2024-11-25", "informationSystem": "http://repository.gdi-de.org/schemas/adv/citygml/fdv/art.htm#_9100", "name": "DEBWL5221000QWyg", "Gemeindeschluessel": "08111000", "Geometrietyp2DReferenz": 3000, "DatenquelleDachhoehe": [ 1000 ], "Grundrissaktualitaet": "2024-04-01", "DatenquelleBodenhoehe": [ 1100 ], "DatenquelleLage": [ 1000 ], "function": "31001_3010", "roofType": 5000, "measuredHeight": 7.601, "measuredHeight_uom": "urn:adv:uom:m", "CountryName": "Germany", "LocalityName": "Stuttgart", "ThoroughfareName": "Allmandring", "ThoroughfareNumber": "30, null", "consistsOfBuildingPart|BuildingPart|creationDate": null, "consistsOfBuildingPart|BuildingPart|roofType": null, "consistsOfBuildingPart|BuildingPart|measuredHeight": null, "consistsOfBuildingPart|BuildingPart|measuredHeight_uom": null }, "geometry": { "type": "MultiLineString", "coordinates": [ [ [ 507007.62, 5398555.71, 451.884 ], [ 507007.858, 5398556.5, 451.898 ], [ 507008.006999999983236, 5398556.99199999962002, 451.906 ], [ 507008.112000000022817, 5398557.5, 451.92 ], [ 507008.278, 5398558.303000000305474, 451.933 ], [ 507008.300999999977648, 5398558.5, 451.939 ], [ 507008.414999999979045, 5398559.5, 451.951 ], [ 507008.43, 5398559.63300000037998, 451.951 ], [ 507008.451, 5398560.5, 451.949 ], [ 507008.462999999988824, 5398560.971, 451.948 ], [ 507008.429, 5398561.5, 451.943 ], [ 507008.37599999998929, 5398562.307, 451.928 ], [ 507008.346000000019558, 5398562.5, 451.913 ], [ 507008.19, 5398563.5, 451.881 ], [ 507008.169999999983702, 5398563.629999999888241, 451.88 ], [ 507008.191999999980908, 5398564.5, 451.873 ], [ 507008.218, 5398565.5, 451.858 ], [ 507008.229999999981374, 5398565.990000000223517, 451.84 ], [ 507007.5, 5398566.03899999987334, 451.841 ], [ 507006.5, 5398566.106999999843538, 451.869 ], [ 507005.5, 5398566.173999999649823, 451.926 ], [ 507004.5, 5398566.24199999962002, 451.949 ], [ 507003.5, 5398566.309000000357628, 451.931 ], [ 507002.5, 5398566.376000000163913, 451.941 ], [ 507001.5, 5398566.44400000013411, 451.963 ], [ 507000.668, 5398566.5, 451.979 ], [ 507000.5, 5398566.511, 451.982 ], [ 506999.5, 5398566.579, 452.015 ], [ 506998.5, 5398566.645999999716878, 452.043 ], [ 506997.5, 5398566.713999999687076, 452.059 ], [ 506996.5, 5398566.781000000424683, 452.066 ], [ 506995.5, 5398566.849000000394881, 452.064 ], [ 506994.5, 5398566.916000000201166, 452.074 ], [ 506993.5, 5398566.983, 452.145 ], [ 506992.5, 5398567.051, 452.329 ], [ 506991.5, 5398567.117999999783933, 452.502 ], [ 506990.5, 5398567.185999999754131, 452.531 ], [ 506989.5, 5398567.252999999560416, 452.515 ], [ 506988.5, 5398567.321000000461936, 452.514 ], [ 506987.5, 5398567.388000000268221, 452.512 ], [ 506986.5, 5398567.456000000238419, 452.512 ], [ 506985.841000000014901, 5398567.5, 452.505 ], [ 506985.5, 5398567.523, 452.503 ], [ 506985.099999999976717, 5398567.549999999813735, 452.495 ], [ 506985.099999999976717, 5398567.58, 452.495 ], [ 506985.118000000016764, 5398567.751000000163913, 452.497 ], [ 506985.120999999984633, 5398567.923999999649823, 452.499 ], [ 506985.108, 5398568.096, 452.5 ], [ 506985.082, 5398568.265999999828637, 452.505 ], [ 506985.039999999979045, 5398568.433000000193715, 452.509 ], [ 506985.017, 5398568.5, 452.516 ], [ 506984.984, 5398568.596, 452.51 ], [ 506984.914999999979045, 5398568.753999999724329, 452.498 ], [ 506984.832, 5398568.90500000026077, 452.488 ], [ 506984.73599999997532, 5398569.048000000417233, 452.478 ], [ 506984.629000000015367, 5398569.183000000193715, 452.469 ], [ 506984.51, 5398569.308000000193715, 452.46 ], [ 506984.5, 5398569.316999999806285, 452.459 ], [ 506984.381, 5398569.42200000025332, 452.457 ], [ 506984.275000000023283, 5398569.5, 452.405 ], [ 506984.242000000027474, 5398569.524000000208616, 452.402 ], [ 506984.09499999997206, 5398569.614, 452.392 ], [ 506983.941, 5398569.690999999642372, 452.384 ], [ 506983.781000000017229, 5398569.754999999888241, 452.378 ], [ 506983.615999999979977, 5398569.803999999538064, 452.373 ], [ 506983.5, 5398569.829, 452.371 ], [ 506983.446999999985565, 5398569.839999999850988, 452.391 ], [ 506983.276000000012573, 5398569.860000000335276, 452.396 ], [ 506983.104, 5398569.86600000038743, 452.404 ], [ 506982.931999999971595, 5398569.855999999679625, 452.414 ], [ 506982.761, 5398569.832000000402331, 452.427 ], [ 506982.593, 5398569.792999999597669, 452.442 ], [ 506982.5, 5398569.763000000268221, 452.452 ], [ 506982.429, 5398569.740000000223517, 452.476 ], [ 506982.270000000018626, 5398569.673000000417233, 452.486 ], [ 506982.118000000016764, 5398569.593000000342727, 452.499 ], [ 506981.974999999976717, 5398569.5, 452.513 ], [ 506981.973, 5398569.498999999836087, 452.533 ], [ 506981.837, 5398569.394000000320375, 452.536 ], [ 506981.710000000020955, 5398569.276999999769032, 452.539 ], [ 506981.593999999982771, 5398569.150000000372529, 452.542 ], [ 506981.5, 5398569.025999999605119, 452.544 ], [ 506981.49, 5398569.013000000268221, 452.527 ], [ 506981.397, 5398568.86699999962002, 452.516 ], [ 506981.316999999980908, 5398568.714999999850988, 452.506 ], [ 506981.25099999998929, 5398568.554999999701977, 452.499 ], [ 506981.234, 5398568.5, 452.498 ], [ 506981.199000000022352, 5398568.390999999828637, 452.474 ], [ 506981.161000000021886, 5398568.223000000230968, 452.451 ], [ 506981.137999999977183, 5398568.052000000141561, 452.432 ], [ 506981.13, 5398567.879999999888241, 452.415 ], [ 506981.12, 5398567.820000000298023, 452.408 ], [ 506980.5, 5398567.861999999731779, 452.315 ], [ 506979.5, 5398567.928999999538064, 452.095 ], [ 506978.5, 5398567.996000000275671, 452.085 ], [ 506977.5, 5398568.064000000245869, 452.14 ], [ 506976.5, 5398568.131, 452.18 ], [ 506975.5, 5398568.197999999858439, 452.186 ], [ 506974.5, 5398568.265999999828637, 452.118 ], [ 506973.5, 5398568.332999999634922, 452.084 ], [ 506972.5, 5398568.400000000372529, 452.074 ], [ 506971.5, 5398568.468000000342727, 452.053 ], [ 506971.018999999971129, 5398568.5, 452.051 ], [ 506970.5, 5398568.535000000149012, 452.056 ], [ 506969.5, 5398568.602, 452.072 ], [ 506968.5, 5398568.67, 452.063 ], [ 506967.5, 5398568.736999999731779, 452.038 ], [ 506966.5, 5398568.803999999538064, 452.038 ], [ 506965.5, 5398568.872000000439584, 452.018 ], [ 506964.5, 5398568.939000000245869, 451.974 ], [ 506963.5, 5398569.006, 451.913 ], [ 506962.5, 5398569.074, 451.831 ], [ 506961.5, 5398569.140999999828637, 451.761 ], [ 506960.5, 5398569.207999999634922, 451.697 ], [ 506959.5, 5398569.275000000372529, 451.628 ], [ 506958.5, 5398569.343000000342727, 451.557 ], [ 506957.5, 5398569.410000000149012, 451.477 ], [ 506956.5, 5398569.477, 451.393 ], [ 506956.164999999979045, 5398569.5, 451.37 ], [ 506955.5, 5398569.545, 451.338 ], [ 506954.5, 5398569.611999999731779, 451.294 ], [ 506953.5, 5398569.678999999538064, 451.248 ], [ 506952.5, 5398569.747000000439584, 451.201 ], [ 506951.5, 5398569.814000000245869, 451.159 ], [ 506950.5, 5398569.881, 451.103 ], [ 506949.5, 5398569.949, 451.053 ], [ 506948.5, 5398570.015999999828637, 451.02 ], [ 506947.5, 5398570.082999999634922, 450.972 ], [ 506946.5, 5398570.150999999605119, 450.878 ], [ 506945.5, 5398570.218000000342727, 450.813 ], [ 506944.5, 5398570.285000000149012, 450.756 ], [ 506943.5, 5398570.353000000119209, 450.699 ], [ 506942.5, 5398570.42, 450.637 ], [ 506941.5, 5398570.486999999731779, 450.548 ], [ 506941.31, 5398570.5, 450.497 ], [ 506940.5, 5398570.554999999701977, 450.402 ], [ 506939.5, 5398570.622000000439584, 450.262 ], [ 506938.5, 5398570.689000000245869, 450.17 ], [ 506937.5, 5398570.757000000216067, 450.12 ], [ 506936.5, 5398570.824, 450.127 ], [ 506935.5, 5398570.890999999828637, 450.149 ], [ 506935.21999999997206, 5398570.910000000149012, 450.144 ], [ 506935.191999999980908, 5398570.5, 450.147 ], [ 506935.12300000002142, 5398569.5, 450.279 ], [ 506935.054, 5398568.5, 450.475 ], [ 506934.98499999998603, 5398567.5, 450.583 ], [ 506934.917000000015832, 5398566.5, 450.601 ], [ 506934.848, 5398565.5, 450.579 ], [ 506934.778999999980442, 5398564.5, 450.551 ], [ 506934.710000000020955, 5398563.5, 450.521 ], [ 506934.642, 5398562.5, 450.515 ], [ 506934.572999999974854, 5398561.5, 450.464 ], [ 506934.504000000015367, 5398560.5, 450.29 ], [ 506934.5, 5398560.440999999642372, 450.187 ], [ 506934.435, 5398559.5, 449.775 ], [ 506934.367000000027474, 5398558.5, 449.161 ], [ 506934.349999999976717, 5398558.259999999776483, 449.144 ], [ 506934.5, 5398558.25, 449.134 ], [ 506935.5, 5398558.183000000193715, 449.145 ], [ 506936.5, 5398558.11600000038743, 449.149 ], [ 506937.5, 5398558.048000000417233, 449.145 ], [ 506938.5, 5398557.980999999679625, 449.134 ], [ 506939.5, 5398557.91399999987334, 449.126 ], [ 506940.5, 5398557.847, 449.123 ], [ 506941.5, 5398557.78000000026077, 449.121 ], [ 506942.5, 5398557.713000000454485, 449.117 ], [ 506943.5, 5398557.644999999552965, 449.118 ], [ 506944.5, 5398557.57799999974668, 449.116 ], [ 506945.5, 5398557.511, 449.109 ], [ 506945.664999999979045, 5398557.5, 449.109 ], [ 506946.5, 5398557.44400000013411, 449.097 ], [ 506947.5, 5398557.377000000327826, 449.102 ], [ 506948.5, 5398557.309999999590218, 449.108 ], [ 506949.5, 5398557.24199999962002, 449.114 ], [ 506950.5, 5398557.174999999813735, 449.122 ], [ 506951.5, 5398557.108, 449.127 ], [ 506952.5, 5398557.041000000201166, 449.128 ], [ 506953.5, 5398556.974000000394881, 449.11 ], [ 506954.5, 5398556.906999999657273, 449.076 ], [ 506955.5, 5398556.838999999687076, 449.064 ], [ 506956.5, 5398556.771999999880791, 449.068 ], [ 506957.5, 5398556.705, 449.069 ], [ 506958.5, 5398556.638000000268221, 449.063 ], [ 506959.5, 5398556.571000000461936, 449.058 ], [ 506960.5, 5398556.503999999724329, 449.061 ], [ 506960.554, 5398556.5, 449.061 ], [ 506961.5, 5398556.435999999754131, 449.057 ], [ 506962.5, 5398556.369, 449.079 ], [ 506963.5, 5398556.302000000141561, 449.063 ], [ 506964.5, 5398556.235000000335276, 449.088 ], [ 506965.5, 5398556.167999999597669, 449.466 ], [ 506966.5, 5398556.100999999791384, 450.062 ], [ 506967.5, 5398556.032999999821186, 450.382 ], [ 506968.5, 5398555.966, 450.413 ], [ 506969.5, 5398555.899000000208616, 450.422 ], [ 506970.5, 5398555.832000000402331, 450.436 ], [ 506971.5, 5398555.764999999664724, 450.432 ], [ 506972.5, 5398555.697999999858439, 450.436 ], [ 506973.5, 5398555.629999999888241, 450.437 ], [ 506974.5, 5398555.563, 450.439 ], [ 506975.441999999980908, 5398555.5, 450.446 ], [ 506975.5, 5398555.496000000275671, 450.461 ], [ 506976.5, 5398555.428999999538064, 450.479 ], [ 506977.5, 5398555.361999999731779, 450.477 ], [ 506978.5, 5398555.295, 450.495 ], [ 506979.5, 5398555.227, 450.984 ], [ 506980.5, 5398555.160000000149012, 451.571 ], [ 506981.5, 5398555.093000000342727, 451.773 ], [ 506982.5, 5398555.025999999605119, 451.757 ], [ 506983.5, 5398554.958999999798834, 451.742 ], [ 506983.78000000002794, 5398554.940000000409782, 451.745 ], [ 506983.756999999983236, 5398554.752000000327826, 451.75 ], [ 506983.75, 5398554.563, 451.754 ], [ 506983.753000000026077, 5398554.5, 451.755 ], [ 506983.76, 5398554.372999999672174, 451.766 ], [ 506983.786000000021886, 5398554.185999999754131, 451.776 ], [ 506983.829000000027008, 5398554.001000000163913, 451.786 ], [ 506983.887999999977183, 5398553.821000000461936, 451.795 ], [ 506983.962999999988824, 5398553.646999999880791, 451.801 ], [ 506984.041000000026543, 5398553.5, 451.806 ], [ 506984.052000000025146, 5398553.480000000447035, 451.826 ], [ 506984.156000000017229, 5398553.321000000461936, 451.834 ], [ 506984.272999999986496, 5398553.173000000417233, 451.839 ], [ 506984.403, 5398553.035000000149012, 451.841 ], [ 506984.5, 5398552.949, 451.84 ], [ 506984.544999999983702, 5398552.909, 451.842 ], [ 506984.696999999985565, 5398552.796, 451.849 ], [ 506984.858, 5398552.696000000461936, 451.851 ], [ 506985.028, 5398552.611999999731779, 451.851 ], [ 506985.204000000027008, 5398552.542000000365078, 451.85 ], [ 506985.348, 5398552.5, 451.849 ], [ 506985.386, 5398552.489, 451.85 ], [ 506985.5, 5398552.466, 451.849 ], [ 506985.571999999985565, 5398552.451000000350177, 451.85 ], [ 506985.76, 5398552.429999999701977, 451.851 ], [ 506985.949000000022352, 5398552.426, 451.851 ], [ 506986.13900000002468, 5398552.438, 451.851 ], [ 506986.326, 5398552.466, 451.851 ], [ 506986.465000000025611, 5398552.5, 451.852 ], [ 506986.5, 5398552.50899999961257, 451.849 ], [ 506986.51, 5398552.511, 451.848 ], [ 506986.689000000013039, 5398552.572999999858439, 451.847 ], [ 506986.862000000022817, 5398552.649000000208616, 451.845 ], [ 506987.028, 5398552.74100000038743, 451.843 ], [ 506987.185999999986961, 5398552.846, 451.84 ], [ 506987.332999999984168, 5398552.964999999850988, 451.836 ], [ 506987.468999999982771, 5398553.097, 451.832 ], [ 506987.5, 5398553.132000000216067, 451.828 ], [ 506987.593999999982771, 5398553.240000000223517, 451.824 ], [ 506987.705000000016298, 5398553.393000000156462, 451.818 ], [ 506987.768999999971129, 5398553.5, 451.807 ], [ 506987.802000000025146, 5398553.55599999986589, 451.805 ], [ 506987.885, 5398553.727, 451.801 ], [ 506987.952, 5398553.904, 451.797 ], [ 506988.004000000015367, 5398554.08600000012666, 451.793 ], [ 506988.038999999989755, 5398554.271999999880791, 451.79 ], [ 506988.058000000019092, 5398554.46100000012666, 451.786 ], [ 506988.058000000019092, 5398554.5, 451.786 ], [ 506988.06, 5398554.650000000372529, 451.787 ], [ 506988.5, 5398554.620000000111759, 451.78 ], [ 506989.5, 5398554.552000000141561, 451.773 ], [ 506990.256999999983236, 5398554.5, 451.768 ], [ 506990.5, 5398554.483, 451.765 ], [ 506991.5, 5398554.415, 451.763 ], [ 506992.5, 5398554.347, 451.773 ], [ 506993.5, 5398554.279, 451.798 ], [ 506994.5, 5398554.21, 451.828 ], [ 506995.5, 5398554.142, 451.84 ], [ 506996.5, 5398554.074, 451.824 ], [ 506997.5, 5398554.004999999888241, 451.814 ], [ 506998.5, 5398553.937, 451.822 ], [ 506999.5, 5398553.869, 451.826 ], [ 507000.5, 5398553.801, 451.825 ], [ 507001.5, 5398553.731999999843538, 451.822 ], [ 507002.5, 5398553.66399999987334, 451.811 ], [ 507003.5, 5398553.596, 451.808 ], [ 507004.5, 5398553.526999999769032, 451.818 ], [ 507004.901000000012573, 5398553.5, 451.822 ], [ 507005.5, 5398553.458999999798834, 451.827 ], [ 507006.5, 5398553.390999999828637, 451.846 ], [ 507007.39000000001397, 5398553.33, 451.86 ], [ 507007.406000000017229, 5398553.5, 451.861 ], [ 507007.5, 5398554.468000000342727, 451.863 ], [ 507007.503000000026077, 5398554.5, 451.864 ], [ 507007.599999999976717, 5398555.5, 451.881 ], [ 507007.62, 5398555.71, 451.884 ] ] ] } },
{ "type": "Feature", "properties": { "fid": 505, "gml_id": "DEBW_522oh00001t", "creationDate": "2024-11-25", "informationSystem": "http://repository.gdi-de.org/schemas/adv/citygml/fdv/art.htm#_9100", "name": "DEBWL522oh00001t", "Gemeindeschluessel": "08111000", "Geometrietyp2DReferenz": 3000, "DatenquelleDachhoehe": [ 1000 ], "Grundrissaktualitaet": "2024-04-01", "DatenquelleBodenhoehe": [ 1100 ], "DatenquelleLage": [ 1000 ], "function": "31001_1020", "roofType": 1000, "measuredHeight": 13.456, "measuredHeight_uom": "urn:adv:uom:m", "CountryName": "Germany", "LocalityName": "Stuttgart", "ThoroughfareName": "Allmandring", "ThoroughfareNumber": "26E, null", "consistsOfBuildingPart|BuildingPart|creationDate": null, "consistsOfBuildingPart|BuildingPart|roofType": null, "consistsOfBuildingPart|BuildingPart|measuredHeight": null, "consistsOfBuildingPart|BuildingPart|measuredHeight_uom": null }, "geometry": { "type": "MultiLineString", "coordinates": [ [ [ 507003.599999999976717, 5398933.139999999664724, 451.995 ], [ 507004.5, 5398933.302000000141561, 452.03 ], [ 507005.5, 5398933.481999999843538, 452.076 ], [ 507005.598, 5398933.5, 452.057 ], [ 507006.5, 5398933.661999999545515, 452.079 ], [ 507007.5, 5398933.843000000342727, 452.048 ], [ 507008.5, 5398934.023, 452.046 ], [ 507009.5, 5398934.20299999974668, 452.084 ], [ 507010.5, 5398934.38300000037998, 452.244 ], [ 507011.148999999975786, 5398934.5, 452.279 ], [ 507011.5, 5398934.563, 452.308 ], [ 507012.5, 5398934.742999999783933, 452.221 ], [ 507012.87, 5398934.809999999590218, 452.21 ], [ 507013.5, 5398934.92200000025332, 452.194 ], [ 507014.5, 5398935.100999999791384, 452.214 ], [ 507015.5, 5398935.28000000026077, 452.168 ], [ 507016.5, 5398935.457999999634922, 452.155 ], [ 507016.734, 5398935.5, 452.148 ], [ 507016.789999999979045, 5398935.509999999776483, 452.15 ], [ 507017.5, 5398935.638000000268221, 452.19 ], [ 507018.5, 5398935.81900000013411, 452.235 ], [ 507019.5, 5398935.998999999836087, 452.314 ], [ 507020.5, 5398936.179999999701977, 452.378 ], [ 507021.5, 5398936.360000000335276, 452.368 ], [ 507022.273999999975786, 5398936.5, 452.357 ], [ 507022.5, 5398936.541000000201166, 452.369 ], [ 507023.5, 5398936.721, 452.445 ], [ 507024.5, 5398936.901999999769032, 452.517 ], [ 507024.599999999976717, 5398936.92, 452.522 ], [ 507024.548, 5398937.5, 452.48 ], [ 507024.5, 5398938.029, 452.454 ], [ 507024.457, 5398938.5, 452.4 ], [ 507024.367000000027474, 5398939.5, 452.356 ], [ 507024.277, 5398940.5, 452.284 ], [ 507024.186999999976251, 5398941.5, 452.215 ], [ 507024.097, 5398942.5, 452.162 ], [ 507024.006999999983236, 5398943.5, 452.102 ], [ 507023.916000000026543, 5398944.5, 452.027 ], [ 507023.826, 5398945.5, 451.948 ], [ 507023.73599999997532, 5398946.5, 451.879 ], [ 507023.646, 5398947.5, 451.806 ], [ 507023.555999999982305, 5398948.5, 451.737 ], [ 507023.5, 5398949.11600000038743, 451.704 ], [ 507023.465000000025611, 5398949.5, 451.666 ], [ 507023.375, 5398950.5, 451.596 ], [ 507023.284999999974389, 5398951.5, 451.524 ], [ 507023.195, 5398952.5, 451.44 ], [ 507023.104999999981374, 5398953.5, 451.36 ], [ 507023.01400000002468, 5398954.5, 451.303 ], [ 507022.924, 5398955.5, 451.237 ], [ 507022.88, 5398955.990000000223517, 451.204 ], [ 507022.5, 5398955.869, 451.217 ], [ 507021.5, 5398955.549999999813735, 451.238 ], [ 507021.343999999982771, 5398955.5, 451.234 ], [ 507020.5, 5398955.230999999679625, 451.247 ], [ 507019.5, 5398954.911999999545515, 451.212 ], [ 507018.5, 5398954.593000000342727, 451.203 ], [ 507018.207999999984168, 5398954.5, 451.211 ], [ 507017.5, 5398954.274000000208616, 451.252 ], [ 507016.5, 5398953.955, 451.199 ], [ 507015.5, 5398953.636, 451.104 ], [ 507015.072999999974854, 5398953.5, 451.056 ], [ 507014.5, 5398953.316999999806285, 451.047 ], [ 507013.5, 5398952.997999999672174, 451.01 ], [ 507012.5, 5398952.678999999538064, 450.918 ], [ 507011.938000000023749, 5398952.5, 450.859 ], [ 507011.5, 5398952.360000000335276, 450.846 ], [ 507010.5, 5398952.041000000201166, 450.77 ], [ 507009.5, 5398951.722, 450.71 ], [ 507008.803000000014435, 5398951.5, 450.681 ], [ 507008.5, 5398951.403, 450.699 ], [ 507007.5, 5398951.083999999798834, 450.69 ], [ 507006.5, 5398950.765999999828637, 450.687 ], [ 507005.668, 5398950.5, 450.68 ], [ 507005.5, 5398950.446999999694526, 450.692 ], [ 507004.5, 5398950.127999999560416, 450.677 ], [ 507003.5, 5398949.809000000357628, 450.673 ], [ 507002.532, 5398949.5, 450.688 ], [ 507002.5, 5398949.490000000223517, 450.714 ], [ 507001.5, 5398949.171, 450.664 ], [ 507000.5, 5398948.852, 450.64 ], [ 506999.5, 5398948.532999999821186, 450.656 ], [ 506999.397, 5398948.5, 450.666 ], [ 506998.770000000018626, 5398948.299999999813735, 450.694 ], [ 506999.025000000023283, 5398947.5, 450.722 ], [ 506999.343, 5398946.5, 450.789 ], [ 506999.5, 5398946.00899999961257, 450.854 ], [ 506999.662000000011176, 5398945.5, 450.899 ], [ 506999.981000000028871, 5398944.5, 451.022 ], [ 507000.299, 5398943.5, 451.144 ], [ 507000.5, 5398942.870000000111759, 451.209 ], [ 507000.618000000016764, 5398942.5, 451.237 ], [ 507000.935999999986961, 5398941.5, 451.356 ], [ 507001.255, 5398940.5, 451.495 ], [ 507001.5, 5398939.730999999679625, 451.508 ], [ 507001.574000000022352, 5398939.5, 451.52 ], [ 507001.892, 5398938.5, 451.557 ], [ 507002.211000000010245, 5398937.5, 451.603 ], [ 507002.5, 5398936.593000000342727, 451.66 ], [ 507002.528999999980442, 5398936.5, 451.666 ], [ 507002.848, 5398935.5, 451.749 ], [ 507003.167000000015832, 5398934.5, 451.853 ], [ 507003.48499999998603, 5398933.5, 451.949 ], [ 507003.5, 5398933.454, 451.973 ], [ 507003.599999999976717, 5398933.139999999664724, 451.995 ] ] ] } },
{ "type": "Feature", "properties": { "fid": 506, "gml_id": "DEBW_522oh00001v", "creationDate": "2024-11-25", "informationSystem": "http://repository.gdi-de.org/schemas/adv/citygml/fdv/art.htm#_9100", "name": "DEBWL522oh00001v", "Gemeindeschluessel": "08111000", "Geometrietyp2DReferenz": 3000, "DatenquelleDachhoehe": [ 1000 ], "Grundrissaktualitaet": "2024-04-01", "DatenquelleBodenhoehe": [ 1100 ], "DatenquelleLage": [ 1000 ], "function": "31001_1020", "roofType": 1000, "measuredHeight": 11.717, "measuredHeight_uom": "urn:adv:uom:m", "CountryName": "Germany", "LocalityName": "Stuttgart", "ThoroughfareName": "Allmandring", "ThoroughfareNumber": "26F, null", "consistsOfBuildingPart|BuildingPart|creationDate": null, "consistsOfBuildingPart|BuildingPart|roofType": null, "consistsOfBuildingPart|BuildingPart|measuredHeight": null, "consistsOfBuildingPart|BuildingPart|measuredHeight_uom": null }, "geometry": { "type": "MultiLineString", "coordinates": [ [ [ 506981.549999999988358, 5398943.089999999850988, 450.646 ], [ 506982.189000000013039, 5398943.5, 450.618 ], [ 506982.5, 5398943.700000000186265, 450.64 ], [ 506983.5, 5398944.341, 450.656 ], [ 506983.746999999973923, 5398944.5, 450.633 ], [ 506984.5, 5398944.983, 450.652 ], [ 506984.900000000023283, 5398945.240000000223517, 450.658 ], [ 506985.305999999982305, 5398945.5, 450.642 ], [ 506985.5, 5398945.623999999836087, 450.663 ], [ 506986.5, 5398946.264000000432134, 450.687 ], [ 506986.869, 5398946.5, 450.654 ], [ 506987.5, 5398946.903, 450.652 ], [ 506988.431999999971595, 5398947.5, 450.616 ], [ 506988.5, 5398947.542999999597669, 450.632 ], [ 506989.5, 5398948.183000000193715, 450.578 ], [ 506989.995, 5398948.5, 450.475 ], [ 506990.5, 5398948.822999999858439, 450.417 ], [ 506991.5, 5398949.463000000454485, 450.408 ], [ 506991.558000000019092, 5398949.5, 450.397 ], [ 506992.5, 5398950.102, 450.526 ], [ 506992.840000000025611, 5398950.320000000298023, 450.521 ], [ 506992.755, 5398950.5, 450.386 ], [ 506992.5, 5398951.041000000201166, 450.212 ], [ 506992.283999999985099, 5398951.5, 450.016 ], [ 506991.811999999976251, 5398952.5, 449.863 ], [ 506991.5, 5398953.161999999545515, 449.838 ], [ 506991.341000000014901, 5398953.5, 449.818 ], [ 506990.869, 5398954.5, 449.767 ], [ 506990.5, 5398955.282999999821186, 449.73 ], [ 506990.397, 5398955.5, 449.695 ], [ 506989.925999999977648, 5398956.5, 449.603 ], [ 506989.5, 5398957.403, 449.504 ], [ 506989.454000000027008, 5398957.5, 449.451 ], [ 506988.983, 5398958.5, 449.301 ], [ 506988.511, 5398959.5, 449.187 ], [ 506988.5, 5398959.524000000208616, 449.185 ], [ 506988.039999999979045, 5398960.5, 449.048 ], [ 506987.568000000028405, 5398961.5, 448.883 ], [ 506987.5, 5398961.644999999552965, 448.862 ], [ 506987.097, 5398962.5, 448.72 ], [ 506986.625, 5398963.5, 448.575 ], [ 506986.5, 5398963.765999999828637, 448.551 ], [ 506986.153999999980442, 5398964.5, 448.479 ], [ 506986.049999999988358, 5398964.71999999973923, 448.467 ], [ 506985.582, 5398964.5, 448.502 ], [ 506985.5, 5398964.46100000012666, 448.535 ], [ 506984.5, 5398963.99100000038743, 448.58 ], [ 506983.5, 5398963.520999999716878, 448.712 ], [ 506983.455000000016298, 5398963.5, 448.724 ], [ 506982.5, 5398963.051, 449.11 ], [ 506981.5, 5398962.581000000238419, 448.915 ], [ 506981.327, 5398962.5, 448.851 ], [ 506980.5, 5398962.110999999567866, 448.812 ], [ 506979.5, 5398961.640999999828637, 448.797 ], [ 506979.200000000011642, 5398961.5, 448.723 ], [ 506978.5, 5398961.171, 448.682 ], [ 506977.5, 5398960.701000000350177, 448.637 ], [ 506977.071999999985565, 5398960.5, 448.649 ], [ 506976.5, 5398960.230999999679625, 448.697 ], [ 506975.5, 5398959.761, 448.673 ], [ 506974.945, 5398959.5, 448.657 ], [ 506974.5, 5398959.291000000201166, 448.683 ], [ 506973.5, 5398958.821000000461936, 448.686 ], [ 506972.816999999980908, 5398958.5, 448.678 ], [ 506972.5, 5398958.350999999791384, 448.708 ], [ 506971.5, 5398957.881, 448.707 ], [ 506970.69, 5398957.5, 448.685 ], [ 506970.5, 5398957.411000000312924, 448.697 ], [ 506969.5, 5398956.940999999642372, 448.694 ], [ 506968.561999999976251, 5398956.5, 448.692 ], [ 506968.5, 5398956.471, 448.711 ], [ 506967.5, 5398956.001000000163913, 448.722 ], [ 506966.5, 5398955.531000000424683, 448.716 ], [ 506966.435, 5398955.5, 448.708 ], [ 506965.5, 5398955.060999999754131, 448.742 ], [ 506964.5, 5398954.589999999850988, 448.756 ], [ 506964.308000000019092, 5398954.5, 448.744 ], [ 506963.5, 5398954.120000000111759, 448.763 ], [ 506963.18, 5398953.96999999973923, 448.762 ], [ 506963.5, 5398953.55599999986589, 448.808 ], [ 506963.543, 5398953.5, 448.814 ], [ 506964.316, 5398952.5, 448.944 ], [ 506964.5, 5398952.262000000104308, 448.99 ], [ 506965.088999999978114, 5398951.5, 449.054 ], [ 506965.5, 5398950.968999999575317, 449.135 ], [ 506965.862000000022817, 5398950.5, 449.196 ], [ 506966.5, 5398949.674999999813735, 449.408 ], [ 506966.635, 5398949.5, 449.438 ], [ 506967.13, 5398948.860000000335276, 449.59 ], [ 506967.408, 5398948.5, 449.648 ], [ 506967.5, 5398948.379999999888241, 449.725 ], [ 506968.179, 5398947.5, 449.871 ], [ 506968.5, 5398947.083999999798834, 449.968 ], [ 506968.950000000011642, 5398946.5, 450.04 ], [ 506969.5, 5398945.786999999545515, 450.128 ], [ 506969.721000000019558, 5398945.5, 450.136 ], [ 506970.493000000016764, 5398944.5, 450.087 ], [ 506970.5, 5398944.490000000223517, 450.075 ], [ 506971.26400000002468, 5398943.5, 450.096 ], [ 506971.5, 5398943.19400000013411, 450.156 ], [ 506972.034999999974389, 5398942.5, 450.261 ], [ 506972.5, 5398941.896999999880791, 450.357 ], [ 506972.805999999982305, 5398941.5, 450.388 ], [ 506973.400000000023283, 5398940.730000000447035, 450.441 ], [ 506973.5, 5398940.599999999627471, 450.446 ], [ 506973.577, 5398940.5, 450.453 ], [ 506974.347, 5398939.5, 450.542 ], [ 506974.5, 5398939.301, 450.574 ], [ 506974.87, 5398938.820000000298023, 450.616 ], [ 506975.5, 5398939.223000000230968, 450.613 ], [ 506975.934, 5398939.5, 450.587 ], [ 506976.5, 5398939.861999999731779, 450.587 ], [ 506977.49800000002142, 5398940.5, 450.583 ], [ 506977.5, 5398940.501000000163913, 450.602 ], [ 506978.5, 5398941.139999999664724, 450.709 ], [ 506979.063000000023749, 5398941.5, 450.755 ], [ 506979.5, 5398941.78000000026077, 450.76 ], [ 506980.5, 5398942.418999999761581, 450.682 ], [ 506980.62699999997858, 5398942.5, 450.648 ], [ 506981.5, 5398943.058000000193715, 450.647 ], [ 506981.549999999988358, 5398943.089999999850988, 450.646 ] ] ] } },
{ "type": "Feature", "properties": { "fid": 507, "gml_id": "DEBW_522oh00001x", "creationDate": "2024-11-25", "informationSystem": "http://repository.gdi-de.org/schemas/adv/citygml/fdv/art.htm#_9100", "name": "DEBWL522oh00001x", "Gemeindeschluessel": "08111000", "Geometrietyp2DReferenz": 3000, "DatenquelleDachhoehe": [ 1000 ], "Grundrissaktualitaet": "2024-04-01", "DatenquelleBodenhoehe": [ 1100 ], "DatenquelleLage": [ 1000 ], "function": "31001_1020", "roofType": 1000, "measuredHeight": 11.683, "measuredHeight_uom": "urn:adv:uom:m", "CountryName": "Germany", "LocalityName": "Stuttgart", "ThoroughfareName": "Allmandring", "ThoroughfareNumber": "26G, null", "consistsOfBuildingPart|BuildingPart|creationDate": null, "consistsOfBuildingPart|BuildingPart|roofType": null, "consistsOfBuildingPart|BuildingPart|measuredHeight": null, "consistsOfBuildingPart|BuildingPart|measuredHeight_uom": null }, "geometry": { "type": "MultiLineString", "coordinates": [ [ [ 507008.56, 5398968.79, 448.859 ], [ 507009.5, 5398968.958999999798834, 448.926 ], [ 507010.5, 5398969.138000000268221, 449.053 ], [ 507011.5, 5398969.316999999806285, 449.183 ], [ 507012.46999999997206, 5398969.49100000038743, 449.237 ], [ 507012.5, 5398969.496000000275671, 449.263 ], [ 507012.520000000018626, 5398969.5, 449.222 ], [ 507013.5, 5398969.676, 449.368 ], [ 507014.5, 5398969.855000000447035, 449.544 ], [ 507015.5, 5398970.034, 449.536 ], [ 507016.5, 5398970.213000000454485, 449.49 ], [ 507017.5, 5398970.392, 449.54 ], [ 507018.103, 5398970.5, 449.56 ], [ 507018.5, 5398970.571000000461936, 449.606 ], [ 507019.5, 5398970.75, 449.716 ], [ 507020.28000000002794, 5398970.889999999664724, 449.788 ], [ 507020.223999999987427, 5398971.5, 449.725 ], [ 507020.131999999983236, 5398972.5, 449.632 ], [ 507020.041000000026543, 5398973.5, 449.549 ], [ 507019.949000000022352, 5398974.5, 449.443 ], [ 507019.857000000018161, 5398975.5, 449.33 ], [ 507019.766, 5398976.5, 449.199 ], [ 507019.674, 5398977.5, 449.046 ], [ 507019.582999999984168, 5398978.5, 448.924 ], [ 507019.5, 5398979.400999999605119, 448.844 ], [ 507019.490999999979977, 5398979.5, 448.785 ], [ 507019.398999999975786, 5398980.5, 448.67 ], [ 507019.38, 5398980.71, 448.651 ], [ 507019.308000000019092, 5398981.5, 448.566 ], [ 507019.218, 5398982.5, 448.456 ], [ 507019.12699999997858, 5398983.5, 448.343 ], [ 507019.06, 5398984.240000000223517, 448.264 ], [ 507019.036000000021886, 5398984.5, 448.205 ], [ 507018.946, 5398985.5, 448.042 ], [ 507018.854999999981374, 5398986.5, 447.902 ], [ 507018.76400000002468, 5398987.5, 447.772 ], [ 507018.673, 5398988.5, 447.675 ], [ 507018.582999999984168, 5398989.5, 447.588 ], [ 507018.539999999979045, 5398989.96999999973923, 447.543 ], [ 507018.5, 5398989.957000000402331, 447.54 ], [ 507017.5, 5398989.639000000432134, 447.467 ], [ 507017.064000000013039, 5398989.5, 447.39 ], [ 507016.5, 5398989.320000000298023, 447.367 ], [ 507015.5, 5398989.002000000327826, 447.286 ], [ 507014.5, 5398988.683000000193715, 447.199 ], [ 507013.924999999988358, 5398988.5, 447.144 ], [ 507013.5, 5398988.365000000223517, 447.144 ], [ 507012.5, 5398988.046, 447.121 ], [ 507011.5, 5398987.728000000119209, 447.065 ], [ 507010.784999999974389, 5398987.5, 446.984 ], [ 507010.5, 5398987.409, 446.985 ], [ 507009.5, 5398987.091, 446.883 ], [ 507008.5, 5398986.771999999880791, 446.802 ], [ 507007.646, 5398986.5, 446.697 ], [ 507007.5, 5398986.454, 446.69 ], [ 507006.5, 5398986.134999999776483, 446.551 ], [ 507005.5, 5398985.815999999642372, 446.494 ], [ 507004.506, 5398985.5, 446.467 ], [ 507004.5, 5398985.497999999672174, 446.529 ], [ 507003.5, 5398985.178999999538064, 446.462 ], [ 507002.5, 5398984.860999999567866, 446.398 ], [ 507001.5, 5398984.542000000365078, 446.359 ], [ 507001.367000000027474, 5398984.5, 446.337 ], [ 507000.5, 5398984.224000000394881, 446.349 ], [ 506999.5, 5398983.90500000026077, 446.306 ], [ 506998.5, 5398983.587000000290573, 446.185 ], [ 506998.227000000013504, 5398983.5, 446.144 ], [ 506997.5, 5398983.268000000156462, 446.141 ], [ 506996.5, 5398982.950000000186265, 446.109 ], [ 506995.5, 5398982.631, 446.116 ], [ 506995.087999999988824, 5398982.5, 446.107 ], [ 506994.5, 5398982.313, 446.147 ], [ 506994.460000000020955, 5398982.299999999813735, 446.135 ], [ 506994.5, 5398982.173999999649823, 446.167 ], [ 506994.713999999978114, 5398981.5, 446.272 ], [ 506995.032, 5398980.5, 446.486 ], [ 506995.348999999987427, 5398979.5, 446.711 ], [ 506995.5, 5398979.025000000372529, 446.808 ], [ 506995.667000000015832, 5398978.5, 446.898 ], [ 506995.984, 5398977.5, 447.188 ], [ 506996.302000000025146, 5398976.5, 447.55 ], [ 506996.5, 5398975.875, 447.893 ], [ 506996.619, 5398975.5, 447.975 ], [ 506996.936999999976251, 5398974.5, 448.149 ], [ 506997.254000000015367, 5398973.5, 448.039 ], [ 506997.5, 5398972.725999999791384, 447.875 ], [ 506997.571999999985565, 5398972.5, 447.861 ], [ 506997.88900000002468, 5398971.5, 447.91 ], [ 506998.207, 5398970.5, 448.07 ], [ 506998.5, 5398969.576999999582767, 448.194 ], [ 506998.523999999975786, 5398969.5, 448.201 ], [ 506998.842, 5398968.5, 448.247 ], [ 506999.158999999985099, 5398967.5, 448.325 ], [ 506999.28000000002794, 5398967.120000000111759, 448.407 ], [ 506999.5, 5398967.160000000149012, 448.435 ], [ 507000.5, 5398967.339999999850988, 448.488 ], [ 507001.392, 5398967.5, 448.502 ], [ 507001.5, 5398967.519999999552965, 448.522 ], [ 507002.5, 5398967.699, 448.602 ], [ 507003.5, 5398967.878999999724329, 448.617 ], [ 507004.5, 5398968.059000000357628, 448.602 ], [ 507005.5, 5398968.239, 448.636 ], [ 507006.5, 5398968.418999999761581, 448.712 ], [ 507006.949000000022352, 5398968.5, 448.723 ], [ 507007.5, 5398968.599000000394881, 448.799 ], [ 507008.5, 5398968.779, 448.857 ], [ 507008.56, 5398968.79, 448.859 ] ] ] } },
{ "type": "Feature", "properties": { "fid": 509, "gml_id": "DEBW_522oh00001z", "creationDate": "2024-11-25", "informationSystem": "http://repository.gdi-de.org/schemas/adv/citygml/fdv/art.htm#_9100", "name": "DEBWL522oh00001z", "Gemeindeschluessel": "08111000", "Geometrietyp2DReferenz": 3000, "DatenquelleDachhoehe": [ 1000 ], "Grundrissaktualitaet": "2024-04-01", "DatenquelleBodenhoehe": [ 1100 ], "DatenquelleLage": [ 1000 ], "function": "31001_1020", "roofType": 1000, "measuredHeight": 12.856, "measuredHeight_uom": "urn:adv:uom:m", "CountryName": "Germany", "LocalityName": "Stuttgart", "ThoroughfareName": "Allmandring", "ThoroughfareNumber": "26H, null", "consistsOfBuildingPart|BuildingPart|creationDate": null, "consistsOfBuildingPart|BuildingPart|roofType": null, "consistsOfBuildingPart|BuildingPart|measuredHeight": null, "consistsOfBuildingPart|BuildingPart|measuredHeight_uom": null }, "geometry": { "type": "MultiLineString", "coordinates": [ [ [ 506972.659999999974389, 5398975.900000000372529, 446.683 ], [ 506973.5, 5398976.440999999642372, 446.568 ], [ 506973.592, 5398976.5, 446.521 ], [ 506974.5, 5398977.083999999798834, 446.46 ], [ 506975.146, 5398977.5, 446.388 ], [ 506975.5, 5398977.728000000119209, 446.343 ], [ 506976.0, 5398978.049999999813735, 446.289 ], [ 506976.5, 5398978.371000000275671, 446.233 ], [ 506976.701, 5398978.5, 446.182 ], [ 506977.5, 5398979.013000000268221, 446.138 ], [ 506978.259000000020023, 5398979.5, 446.065 ], [ 506978.5, 5398979.654, 446.064 ], [ 506979.5, 5398980.296, 445.983 ], [ 506979.818000000028405, 5398980.5, 445.905 ], [ 506980.5, 5398980.938, 445.812 ], [ 506981.37599999998929, 5398981.5, 445.682 ], [ 506981.5, 5398981.58, 445.684 ], [ 506982.5, 5398982.222, 445.589 ], [ 506982.934, 5398982.5, 445.521 ], [ 506983.5, 5398982.862999999895692, 445.479 ], [ 506983.900000000023283, 5398983.120000000111759, 445.447 ], [ 506983.722, 5398983.5, 445.355 ], [ 506983.5, 5398983.972, 445.285 ], [ 506983.25199999997858, 5398984.5, 445.139 ], [ 506982.783, 5398985.5, 444.921 ], [ 506982.5, 5398986.103000000119209, 444.821 ], [ 506982.313000000023749, 5398986.5, 444.72 ], [ 506981.843999999982771, 5398987.5, 444.564 ], [ 506981.5, 5398988.233, 444.457 ], [ 506981.375, 5398988.5, 444.363 ], [ 506980.90500000002794, 5398989.5, 444.15 ], [ 506980.5, 5398990.362999999895692, 444.015 ], [ 506980.435999999986961, 5398990.5, 443.952 ], [ 506979.966000000014901, 5398991.5, 443.712 ], [ 506979.5, 5398992.494, 443.518 ], [ 506979.496999999973923, 5398992.5, 443.476 ], [ 506979.028, 5398993.5, 443.259 ], [ 506978.558000000019092, 5398994.5, 443.107 ], [ 506978.5, 5398994.623999999836087, 443.101 ], [ 506978.088999999978114, 5398995.5, 443.077 ], [ 506977.619, 5398996.5, 442.784 ], [ 506977.5, 5398996.753999999724329, 442.703 ], [ 506977.150000000023283, 5398997.5, 442.375 ], [ 506976.5, 5398997.196000000461936, 442.488 ], [ 506975.5, 5398996.727, 442.488 ], [ 506975.01500000001397, 5398996.5, 442.522 ], [ 506974.5, 5398996.25899999961257, 442.574 ], [ 506973.5, 5398995.791000000201166, 442.606 ], [ 506972.879000000015367, 5398995.5, 442.672 ], [ 506972.5, 5398995.321999999694526, 442.779 ], [ 506971.5, 5398994.854000000283122, 442.851 ], [ 506970.744, 5398994.5, 442.871 ], [ 506970.5, 5398994.386, 442.923 ], [ 506969.5, 5398993.917000000365078, 442.963 ], [ 506968.609, 5398993.5, 443.02 ], [ 506968.5, 5398993.449, 443.089 ], [ 506967.5, 5398992.980999999679625, 443.152 ], [ 506966.5, 5398992.512000000104308, 443.2 ], [ 506966.473999999987427, 5398992.5, 443.195 ], [ 506965.5, 5398992.043999999761581, 443.278 ], [ 506964.5, 5398991.576000000350177, 443.322 ], [ 506964.337999999988824, 5398991.5, 443.331 ], [ 506963.5, 5398991.106999999843538, 443.408 ], [ 506962.5, 5398990.639000000432134, 443.43 ], [ 506962.202999999979511, 5398990.5, 443.43 ], [ 506961.5, 5398990.171, 443.515 ], [ 506960.5, 5398989.701999999582767, 443.512 ], [ 506960.068000000028405, 5398989.5, 443.521 ], [ 506959.5, 5398989.234000000171363, 443.601 ], [ 506958.5, 5398988.765999999828637, 443.641 ], [ 506957.933000000019092, 5398988.5, 443.66 ], [ 506957.5, 5398988.29700000025332, 443.718 ], [ 506956.5, 5398987.829, 443.733 ], [ 506955.797000000020489, 5398987.5, 443.729 ], [ 506955.5, 5398987.360999999567866, 443.771 ], [ 506954.5, 5398986.892, 443.778 ], [ 506954.26, 5398986.78000000026077, 443.777 ], [ 506954.476000000024214, 5398986.5, 443.828 ], [ 506954.5, 5398986.468999999575317, 443.883 ], [ 506955.24900000001071, 5398985.5, 444.097 ], [ 506955.5, 5398985.173999999649823, 444.235 ], [ 506956.021, 5398984.5, 444.367 ], [ 506956.5, 5398983.878999999724329, 444.53 ], [ 506956.793, 5398983.5, 444.613 ], [ 506957.5, 5398982.585, 444.908 ], [ 506957.565, 5398982.5, 444.927 ], [ 506958.159999999974389, 5398981.730000000447035, 445.065 ], [ 506958.338999999978114, 5398981.5, 445.104 ], [ 506958.5, 5398981.292000000365078, 445.201 ], [ 506959.115, 5398980.5, 445.342 ], [ 506959.5, 5398980.003999999724329, 445.452 ], [ 506959.891, 5398979.5, 445.511 ], [ 506960.0, 5398979.360000000335276, 445.547 ], [ 506960.5, 5398978.712000000290573, 445.623 ], [ 506960.663999999989755, 5398978.5, 445.648 ], [ 506961.435, 5398977.5, 445.842 ], [ 506961.5, 5398977.416000000201166, 445.913 ], [ 506962.207, 5398976.5, 446.102 ], [ 506962.5, 5398976.120000000111759, 446.237 ], [ 506962.978, 5398975.5, 446.358 ], [ 506963.5, 5398974.824, 446.514 ], [ 506963.75, 5398974.5, 446.563 ], [ 506964.5, 5398973.528, 446.731 ], [ 506964.522, 5398973.5, 446.736 ], [ 506965.293, 5398972.5, 446.918 ], [ 506965.5, 5398972.231999999843538, 446.992 ], [ 506965.979999999981374, 5398971.610000000335276, 447.083 ], [ 506966.5, 5398971.94400000013411, 447.074 ], [ 506967.365999999979977, 5398972.5, 447.005 ], [ 506967.5, 5398972.58600000012666, 447.01 ], [ 506968.5, 5398973.228000000119209, 446.96 ], [ 506968.923, 5398973.5, 446.916 ], [ 506969.5, 5398973.871000000275671, 446.897 ], [ 506970.479999999981374, 5398974.5, 446.828 ], [ 506970.5, 5398974.513000000268221, 446.848 ], [ 506971.5, 5398975.15500000026077, 446.821 ], [ 506972.037000000011176, 5398975.5, 446.754 ], [ 506972.5, 5398975.79700000025332, 446.703 ], [ 506972.659999999974389, 5398975.900000000372529, 446.683 ] ] ] } }
]
}
